Name,Email,Phone,State,District,Locality
"Rajesh Prasad","rajesh.prasad@cityrealty.in","+91 6955218942","Madhya Pradesh","Indore","MG Road"
"Gaurav Rao","gaurav.rao@homevista.in","+91 8870518444","Tamil Nadu","Madurai","KK Nagar"
"Nisha Kumar","nisha.kumar@nestprop.in","+91 9576332363","Maharashtra","Pune","Magarpatta"
"Ananya Choudhary","ananya.choudhary@housingplus.in","+91 6095094715","Delhi","New Delhi","Nehru Place"
"Sarita Rao","sarita.rao@smartrealty.in","+91 8188001632","Haryana","Faridabad","NIT"
"Ravi Prasad","ravi.prasad@plotpoint.in","+91 9269449493","Gujarat","Surat","Dumas Road"
"Renuka Kaur","renuka.kaur@flatfind.in","+91 8333456044","Madhya Pradesh","Gwalior","Maharajpura"
"Rajesh Bhat","rajesh.bhat@landcraft.in","+91 6424237904","Uttar Pradesh","Noida","Sector 50"
"Akash Choudhary","akash.choudhary@dreamhome.in","+91 9305323362","Gujarat","Vadodara","Fatehgunj"
"Vivek Narayan","vivek.narayan@realtyin.in","+91 9132219755","Delhi","East Delhi","Shakarpur"
"Manish Kulkarni","manish.kulkarni@estatepro.in","+91 7331740351","Tamil Nadu","Chennai","Velachery"
"Anita Soni","anita.soni@landview.in","+91 8188936681","Odisha","Cuttack","Ranihat"
"Yogesh Narayan","yogesh.narayan@propline.in","+91 6515172237","Goa","Panaji","Dona Paula"
"Anjali Batra","anjali.batra@estateworld.in","+91 9440715633","Rajasthan","Udaipur","Chetak Circle"
"Rohit Ghosh","rohit.ghosh@realtyin.in","+91 6661820479","West Bengal","Siliguri","Bhaktinagar"
"Neha Patel","neha.patel@flatzone.in","+91 7388950726","Punjab","Amritsar","Green Avenue"
"Amit Chandra","amit.chandra@plotpoint.in","+91 9944800454","Punjab","Ludhiana","Rishi Nagar"
"Ashok Krishnan","ashok.krishnan@dreamhome.in","+91 9894049943","Rajasthan","Udaipur","Bhatt Ji Ki Bari"
"Sarita Rajan","sarita.rajan@housezone.in","+91 9697814022","Telangana","Warangal","Pochamma Maidan"
"Harish Pawar","harish.pawar@homebase.in","+91 9648822623","Madhya Pradesh","Indore","MG Road"
"Gaurav Sethi","gaurav.sethi@propline.in","+91 6533900268","Gujarat","Vadodara","Karelibaug"
"Vinod Kumar","vinod.kumar@dreamhome.in","+91 6302610770","Jharkhand","Ranchi","Kanke Road"
"Anita Bose","anita.bose@urbanrealty.in","+91 7725624562","Kerala","Ernakulam","Thripunithura"
"Padma Mehta","padma.mehta@plotpoint.in","+91 8784431479","West Bengal","Siliguri","Salugara"
"Akash Sethi","akash.sethi@skyline.in","+91 8173411397","Kerala","Thiruvananthapuram","Kowdiar"
"Varsha Pawar","varsha.pawar@dreamrealty.in","+91 8276118389","Tamil Nadu","Tiruchirappalli","Woraiyur"
"Santosh Kulkarni","santosh.kulkarni@propworld.in","+91 9883023676","Tamil Nadu","Tiruchirappalli","Srirangam"
"Kirti Mishra","kirti.mishra@homes.in","+91 7385239734","Punjab","Chandigarh","Sector 26"
"Manoj Singh","manoj.singh@estatecraft.in","+91 7002269447","Delhi","West Delhi","Punjabi Bagh"
"Suresh Batra","suresh.batra@dreamrealty.in","+91 6055418977","Karnataka","Mysuru","Yadavagiri"
"Suman Thakur","suman.thakur@urbanrealty.in","+91 6985817291","Karnataka","Bengaluru","Whitefield"
"Gauri Nair","gauri.nair@homevista.in","+91 9923114871","Odisha","Cuttack","OMP Square"
"Divya Dhawan","divya.dhawan@estatecraft.in","+91 7251394267","Karnataka","Mysuru","Jayalakshmipuram"
"Vinod Goyal","vinod.goyal@estatepro.in","+91 9648492708","Tamil Nadu","Coimbatore","Race Course"
"Gaurav Kaur","gaurav.kaur@cityrealty.in","+91 9938258475","Tamil Nadu","Tiruchirappalli","Thillai Nagar"
"Vikram Dubey","vikram.dubey@nestfinder.in","+91 8164579217","Andhra Pradesh","Visakhapatnam","NAD Junction"
"Tushar Nambiar","tushar.nambiar@homevista.in","+91 8926813324","Telangana","Hyderabad","Kukatpally"
"Arun Krishnan","arun.krishnan@estateplus.in","+91 7781406102","Gujarat","Surat","Varachha"
"Nisha Dhawan","nisha.dhawan@estatepro.in","+91 7746119884","Maharashtra","Nashik","College Road"
"Vishal Nambiar","vishal.nambiar@smartrealty.in","+91 8524605865","Madhya Pradesh","Indore","Palasia"
"Aniket Pawar","aniket.pawar@homeclick.in","+91 9025736798","Uttar Pradesh","Varanasi","Bhelupur"
"Manju Nambiar","manju.nambiar@nexthome.in","+91 6064936858","Bihar","Patna","Fraser Road"
"Tushar Choudhary","tushar.choudhary@propsearch.in","+91 8740288610","Gujarat","Ahmedabad","Bopal"
"Gaurav Khanna","gaurav.khanna@housecraft.in","+91 7574607959","Maharashtra","Thane","Naupada"
"Megha Pandey","megha.pandey@skyline.in","+91 6157963960","Odisha","Cuttack","Link Road"
"Arjun Sharma","arjun.sharma@landview.in","+91 9800296248","Maharashtra","Pune","Magarpatta"
"Sapna Gill","sapna.gill@propsearch.in","+91 7300060707","Goa","Margao","Navelim"
"Neha Mehta","neha.mehta@housingplus.in","+91 6944250106","Gujarat","Ahmedabad","Thaltej"
"Vivek Nambiar","vivek.nambiar@homespace.in","+91 7141846475","Kerala","Kochi","MG Road"
"Vivek Sinha","vivek.sinha@estateplus.in","+91 9664160753","Uttarakhand","Dehradun","Clement Town"
"Arun Venkat","arun.venkat@nexthome.in","+91 6214535115","Rajasthan","Jaipur","Malviya Nagar"
"Usha Rawat","usha.rawat@homehunt.in","+91 7035893648","Andhra Pradesh","Visakhapatnam","Seethammadhara"
"Shobha Bhat","shobha.bhat@urbanspace.in","+91 9183395276","Uttar Pradesh","Agra","Shahganj"
"Veena Pandey","veena.pandey@housingplus.in","+91 8916563004","Delhi","South Delhi","Hauz Khas"
"Mukesh Mehta","mukesh.mehta@skyrealty.in","+91 9219089077","West Bengal","Howrah","Ramrajatala"
"Ravi Reddy","ravi.reddy@homefind.in","+91 9366847808","Tamil Nadu","Tiruchirappalli","Crawford"
"Deepa Agarwal","deepa.agarwal@estatecraft.in","+91 9494612030","Maharashtra","Pune","Koregaon Park"
"Rahul Mathur","rahul.mathur@urbanrealty.in","+91 6161638104","Tamil Nadu","Madurai","Bibikulam"
"Rajesh Chauhan","rajesh.chauhan@landview.in","+91 6451402021","Uttar Pradesh","Varanasi","Bhelupur"
"Varun Chauhan","varun.chauhan@homebase.in","+91 7741810580","Uttarakhand","Haridwar","BHEL"
"Tanvi Patel","tanvi.patel@landview.in","+91 6820226064","Gujarat","Vadodara","Alkapuri"
"Meera Agarwal","meera.agarwal@urbanspace.in","+91 6285794351","Maharashtra","Mumbai","Bandra"
"Aditi Chandra","aditi.chandra@propline.in","+91 8561157972","Punjab","Chandigarh","Sector 35"
"Ajay Gowda","ajay.gowda@estatecraft.in","+91 7436016042","Maharashtra","Mumbai","Bandra"
"Ravi Tiwari","ravi.tiwari@estatepro.in","+91 8277169727","Odisha","Bhubaneswar","Saheed Nagar"
"Pooja Reddy","pooja.reddy@realty.in","+91 8485555699","Madhya Pradesh","Bhopal","Shahpura"
"Usha Gupta","usha.gupta@estateplus.in","+91 8308250232","Uttar Pradesh","Varanasi","Cantonment"
"Nisha Sen","nisha.sen@propease.in","+91 6245080340","Gujarat","Surat","Athwa"
"Manoj Mehta","manoj.mehta@dreamrealty.in","+91 9252754866","Bihar","Patna","Exhibition Road"
"Champa Tiwari","champa.tiwari@nestprop.in","+91 8295247200","Maharashtra","Pune","Kothrud"
"Geeta Hegde","geeta.hegde@homespace.in","+91 9139074605","Maharashtra","Mumbai","Powai"
"Lakshmi Menon","lakshmi.menon@estateplus.in","+91 8249215246","Goa","Panaji","Caranzalem"
"Prasad Bhatt","prasad.bhatt@realtyzone.in","+91 6947621310","Uttarakhand","Dehradun","Prem Nagar"
"Nisha Pandey","nisha.pandey@cityrealty.in","+91 6268114095","Telangana","Hyderabad","Madhapur"
"Sunita Soni","sunita.soni@propvault.in","+91 6304122898","Andhra Pradesh","Tirupati","Leela Mahal"
"Vijay Pawar","vijay.pawar@homehunt.in","+91 6913723748","Goa","Margao","Fatorda"
"Sachin Jain","sachin.jain@homes.in","+91 9749569844","Kerala","Kozhikode","Beach Road"
"Girish Malhotra","girish.malhotra@realty.in","+91 8473927686","Bihar","Gaya","Delha"
"Rekha Kapoor","rekha.kapoor@dreamrealty.in","+91 8825265925","Punjab","Chandigarh","Sector 8"
"Vinod Mahajan","vinod.mahajan@primeplot.in","+91 7748409695","Karnataka","Hubli","Navanagar"
"Sunil Mathur","sunil.mathur@estatecraft.in","+91 6524133594","Punjab","Amritsar","White Avenue"
"Sanjay Reddy","sanjay.reddy@estatecraft.in","+91 7508219580","Maharashtra","Mumbai","Powai"
"Siddharth Mukherjee","siddharth.mukherjee@propsearch.in","+91 6804795808","Odisha","Bhubaneswar","Nayapalli"
"Rohan Gowda","rohan.gowda@landview.in","+91 7225337715","Jharkhand","Ranchi","Kanke Road"
"Asha Sen","asha.sen@urbanprop.in","+91 8180687574","Goa","Panaji","Dona Paula"
"Lata Bansal","lata.bansal@skyrealty.in","+91 6370151193","Odisha","Bhubaneswar","Mancheswar"
"Nisha Yadav","nisha.yadav@propline.in","+91 8862307725","Kerala","Kochi","Edappally"
"Tanvi Rao","tanvi.rao@estatepro.in","+91 9916432754","Delhi","New Delhi","Saket"
"Ritu Yadav","ritu.yadav@dreamrealty.in","+91 8314930059","Uttar Pradesh","Lucknow","Vikas Nagar"
"Usha Mitra","usha.mitra@urbanprop.in","+91 9953788776","Odisha","Bhubaneswar","Jaydev Vihar"
"Suresh Nambiar","suresh.nambiar@urbanspace.in","+91 9867386456","Maharashtra","Mumbai","Powai"
"Dinesh Gill","dinesh.gill@plotpoint.in","+91 9596603394","Haryana","Faridabad","Sector 28"
"Varsha Bose","varsha.bose@homehunt.in","+91 6259958268","West Bengal","Howrah","Shibpur"
"Manju Kaur","manju.kaur@estateworld.in","+91 9868303318","Gujarat","Surat","Katargam"
"Divya Bansal","divya.bansal@propease.in","+91 6869144303","Tamil Nadu","Coimbatore","Vadavalli"
"Seema Yadav","seema.yadav@landcraft.in","+91 8623507516","Punjab","Chandigarh","Sector 9"
"Prasad Yadav","prasad.yadav@flatzone.in","+91 7022239242","Delhi","South Delhi","Kalkaji"
"Geeta Jain","geeta.jain@estateworld.in","+91 9259762603","Maharashtra","Thane","Panchpakhadi"
"Harish Prasad","harish.prasad@estatecraft.in","+91 9010898197","Andhra Pradesh","Visakhapatnam","Seethammadhara"
"Kirti Singh","kirti.singh@propsearch.in","+91 8138813073","Gujarat","Surat","Katargam"
"Manju Kumar","manju.kumar@realquest.in","+91 8992502860","Goa","Panaji","Ribandar"
"Sapna Deshmukh","sapna.deshmukh@housezone.in","+91 9231693873","Haryana","Gurgaon","Sector 82"
"Vijay Bansal","vijay.bansal@cityrealty.in","+91 6800714888","Karnataka","Mangaluru","Derebail"
"Aniket Ghosh","aniket.ghosh@estatecraft.in","+91 8361094362","Assam","Guwahati","Maligaon"
"Karan Menon","karan.menon@homebase.in","+91 9883991537","Madhya Pradesh","Bhopal","Shivaji Nagar"
"Pranav Naik","pranav.naik@housezone.in","+91 8056371107","Gujarat","Surat","Pal"
"Geeta Narayan","geeta.narayan@propclick.in","+91 9212822570","Andhra Pradesh","Tirupati","Leela Mahal"
"Aniket Ghosh","aniket.ghosh@propview.in","+91 9960904094","Maharashtra","Pune","Hadapsar"
"Sunil Khanna","sunil.khanna@housingplus.in","+91 9002497064","Madhya Pradesh","Indore","Sapna Sangeeta"
"Dinesh Soni","dinesh.soni@nestprop.in","+91 9922844276","Maharashtra","Nashik","Deolali"
"Manju Singh","manju.singh@nestfinder.in","+91 7145374823","Telangana","Warangal","Kazipet"
"Lata Kapoor","lata.kapoor@propnet.in","+91 9910422079","Tamil Nadu","Chennai","Mylapore"
"Pooja Naik","pooja.naik@estatepro.in","+91 9746462621","Rajasthan","Udaipur","Fatehpura"
"Priya Kapoor","priya.kapoor@propsearch.in","+91 6217199352","Goa","Margao","Aquem"
"Jyoti Choudhary","jyoti.choudhary@skyrealty.in","+91 8470384289","Assam","Guwahati","Paltan Bazaar"
"Akash Goyal","akash.goyal@flatfind.in","+91 9417676838","Andhra Pradesh","Tirupati","Balaji Colony"
"Kavitha Kulkarni","kavitha.kulkarni@nestprop.in","+91 7969548723","Kerala","Thiruvananthapuram","Medical College"
"Sapna Das","sapna.das@cityrealty.in","+91 9744907405","Jharkhand","Jamshedpur","Golmuri"
"Rashmi Chatterjee","rashmi.chatterjee@primerealty.in","+91 8566001136","Telangana","Warangal","Pochamma Maidan"
"Ganesh Pawar","ganesh.pawar@flatzone.in","+91 6686503427","Maharashtra","Pune","Magarpatta"
"Anita Agarwal","anita.agarwal@landcraft.in","+91 6860048274","Punjab","Amritsar","GT Road"
"Vinod Gowda","vinod.gowda@nestprop.in","+91 9270285206","Madhya Pradesh","Indore","Bhawarkuan"
"Deepak Kulkarni","deepak.kulkarni@homeclick.in","+91 8118475006","Rajasthan","Udaipur","Fatehpura"
"Gaurav Sen","gaurav.sen@propclick.in","+91 6758387691","Tamil Nadu","Madurai","Narimedu"
"Akash Iyer","akash.iyer@realtyin.in","+91 8958952052","Punjab","Chandigarh","Sector 9"
"Madhuri Oberoi","madhuri.oberoi@realtyin.in","+91 7424830401","Rajasthan","Jaipur","Mansarovar"
"Prakash Chandra","prakash.chandra@propnet.in","+91 9958151009","Punjab","Ludhiana","Dugri"
"Vinod Menon","vinod.menon@landview.in","+91 6110829163","Bihar","Patna","Exhibition Road"
"Harish Menon","harish.menon@landpro.in","+91 6547362831","Gujarat","Vadodara","Gotri"
"Sanjay Sen","sanjay.sen@primeplot.in","+91 7300772248","Kerala","Kozhikode","Vellimadukunnu"
"Vikram Deshpande","vikram.deshpande@nexthome.in","+91 8362274889","Karnataka","Mysuru","Hebbal"
"Vijay Krishnan","vijay.krishnan@smartrealty.in","+91 7674196990","Kerala","Kozhikode","Thondayad"
"Aditi Chauhan","aditi.chauhan@landcraft.in","+91 9688824958","Gujarat","Ahmedabad","Satellite"
"Trupti Gupta","trupti.gupta@propsearch.in","+91 9753778613","West Bengal","Siliguri","Surya Sen Nagar"
"Preeti Jain","preeti.jain@landview.in","+91 9929775581","Haryana","Faridabad","Sector 14"
"Dinesh Ghosh","dinesh.ghosh@homeclick.in","+91 8469852404","Delhi","South Delhi","Sainik Farm"
"Yogesh Hegde","yogesh.hegde@plotpoint.in","+91 6481402572","Delhi","South Delhi","Badarpur"
"Ramesh Gupta","ramesh.gupta@housezone.in","+91 9514007799","Goa","Panaji","Fontainhas"
"Preeti Nambiar","preeti.nambiar@smartrealty.in","+91 6278750465","Gujarat","Ahmedabad","Prahlad Nagar"
"Asha Mahajan","asha.mahajan@propview.in","+91 7757846565","Punjab","Chandigarh","Sector 43"
"Manju Ghosh","manju.ghosh@landpro.in","+91 6238004714","Goa","Margao","Navelim"
"Akash Mitra","akash.mitra@landcraft.in","+91 9591885447","Odisha","Cuttack","Cantonment"
"Vijay Chauhan","vijay.chauhan@landview.in","+91 7328984621","Karnataka","Bengaluru","Indiranagar"
"Bhavna Trivedi","bhavna.trivedi@homehunt.in","+91 6878973256","Gujarat","Vadodara","Harni"
"Divya Kaur","divya.kaur@primerealty.in","+91 8865060187","Uttar Pradesh","Noida","Sector 128"
"Sarita Krishnan","sarita.krishnan@propsearch.in","+91 7391582050","Gujarat","Ahmedabad","Vastrapur"
"Deepa Mehta","deepa.mehta@propmart.in","+91 9408326615","Delhi","New Delhi","Green Park"
"Ravi Kapoor","ravi.kapoor@flatzone.in","+91 7328060577","Maharashtra","Thane","Hiranandani"
"Sunil Gill","sunil.gill@propsearch.in","+91 9124917415","Madhya Pradesh","Bhopal","MP Nagar"
"Usha Hegde","usha.hegde@nestfinder.in","+91 8399252491","Andhra Pradesh","Visakhapatnam","Gajuwaka"
"Arun Krishnan","arun.krishnan@housingplus.in","+91 8221030926","Rajasthan","Jaipur","Pratap Nagar"
"Rajesh Reddy","rajesh.reddy@nestfinder.in","+91 9646793585","Haryana","Panipat","Risalu"
"Vinod Bansal","vinod.bansal@homefind.in","+91 7730210022","Rajasthan","Jodhpur","Chopasni"
"Pallavi Gill","pallavi.gill@propview.in","+91 9215948153","Haryana","Gurgaon","DLF Phase 3"
"Sarita Kulkarni","sarita.kulkarni@realtyzone.in","+91 9200059731","Bihar","Patna","Exhibition Road"
"Yogesh Oberoi","yogesh.oberoi@nexthome.in","+91 7770025689","Jharkhand","Jamshedpur","Sonari"
"Ajay Choudhary","ajay.choudhary@landpro.in","+91 9227310112","West Bengal","Siliguri","Hakim Para"
"Ananya Krishnan","ananya.krishnan@housecraft.in","+91 7889787462","Punjab","Ludhiana","Rajguru Nagar"
"Shweta Nair","shweta.nair@propvault.in","+91 8311306968","Tamil Nadu","Coimbatore","Singanallur"
"Meera Yadav","meera.yadav@propclick.in","+91 6161350450","Haryana","Panipat","Devi Lal Colony"
"Siddharth Mathur","siddharth.mathur@propease.in","+91 9935733430","Gujarat","Surat","Vesu"
"Girish Tyagi","girish.tyagi@homefind.in","+91 6508949833","Punjab","Ludhiana","Dugri"
"Archana Chandra","archana.chandra@homevista.in","+91 9502414998","Rajasthan","Udaipur","Shobhagpura"
"Kavitha Patil","kavitha.patil@homehunt.in","+91 6768829311","Kerala","Kochi","Edappally"
"Arjun Prasad","arjun.prasad@propworld.in","+91 9247074060","Haryana","Faridabad","NIT"
"Madhuri Sen","madhuri.sen@housingplus.in","+91 6344240326","Kerala","Thiruvananthapuram","Medical College"
"Ravi Prasad","ravi.prasad@propvault.in","+91 9431066871","Rajasthan","Jodhpur","Paota"
"Megha Jain","megha.jain@nestfinder.in","+91 7517607824","Odisha","Bhubaneswar","Baramunda"
"Ramesh Patel","ramesh.patel@estatepro.in","+91 7594097332","Chhattisgarh","Raipur","Tatibandh"
"Vishal Tiwari","vishal.tiwari@propclick.in","+91 7264835531","Rajasthan","Jaipur","Vaishali Nagar"
"Sunil Mukherjee","sunil.mukherjee@urbanrealty.in","+91 9094844482","Gujarat","Ahmedabad","Navrangpura"
"Shweta Sen","shweta.sen@housecraft.in","+91 9587168668","Tamil Nadu","Tiruchirappalli","Ariyamangalam"
"Lata Agarwal","lata.agarwal@estatecraft.in","+91 9525690724","Karnataka","Hubli","Gokul Road"
"Karan Chatterjee","karan.chatterjee@propmart.in","+91 9532631196","Maharashtra","Nashik","Gangapur Road"
"Amit Rao","amit.rao@propvault.in","+91 6503950488","Punjab","Amritsar","Green Avenue"
"Sneha Chandra","sneha.chandra@estatecraft.in","+91 8592749146","Karnataka","Bengaluru","HSR Layout"
"Manoj Sharma","manoj.sharma@housingplus.in","+91 6981682678","Maharashtra","Nagpur","Laxmi Nagar"
"Dinesh Das","dinesh.das@nestprop.in","+91 9852950560","Karnataka","Bengaluru","Yelahanka"
"Sachin Gill","sachin.gill@housecraft.in","+91 6382270514","Maharashtra","Thane","Ghodbunder Road"
"Arjun Oberoi","arjun.oberoi@homehunt.in","+91 9467377470","Uttarakhand","Haridwar","Har Ki Pauri"
"Ajay Bhargava","ajay.bhargava@urbanspace.in","+91 9677063539","Rajasthan","Jodhpur","Pal Road"
"Archana Sharma","archana.sharma@homebase.in","+91 6044621823","Delhi","South Delhi","Mehrauli"
"Shweta Patel","shweta.patel@propease.in","+91 6839972302","Maharashtra","Nagpur","Dharampeth"
"Dinesh Rao","dinesh.rao@housezone.in","+91 8152119765","Odisha","Cuttack","Tulasipur"
"Varsha Gill","varsha.gill@estateplus.in","+91 6837679785","Maharashtra","Thane","Majiwada"
"Sanjay Mukherjee","sanjay.mukherjee@propline.in","+91 8323632584","Madhya Pradesh","Indore","Bhawarkuan"
"Vikram Saxena","vikram.saxena@propmart.in","+91 9708358236","West Bengal","Howrah","Ramrajatala"
"Archana Singh","archana.singh@homes.in","+91 9689754625","Maharashtra","Thane","Brahmand"
"Deepak Hegde","deepak.hegde@urbanprop.in","+91 7762780587","Odisha","Bhubaneswar","Chandrasekharpur"
"Mohan Joshi","mohan.joshi@landcraft.in","+91 6126740214","Haryana","Panipat","Risalu"
"Pranav Rawat","pranav.rawat@propsearch.in","+91 7713088875","Tamil Nadu","Madurai","Palanganatham"
"Shobha Mitra","shobha.mitra@homehunt.in","+91 8627488399","Telangana","Warangal","Nakkalagutta"
"Nitin Kulkarni","nitin.kulkarni@smartrealty.in","+91 6879462995","Uttarakhand","Dehradun","Subhash Nagar"
"Gaurav Goyal","gaurav.goyal@urbanrealty.in","+91 6913667877","Goa","Panaji","Altinho"
"Suresh Thakur","suresh.thakur@dreamrealty.in","+91 7053897079","Tamil Nadu","Madurai","Anna Nagar"
"Ritu Bose","ritu.bose@skyline.in","+91 9736116831","Tamil Nadu","Tiruchirappalli","Puthur"
"Jyoti Kapoor","jyoti.kapoor@estatepro.in","+91 6216694516","Madhya Pradesh","Gwalior","Jhansi Road"
"Sanjay Bhat","sanjay.bhat@landpro.in","+91 7616143900","Rajasthan","Udaipur","Fatehpura"
"Naveen Thakur","naveen.thakur@propclick.in","+91 7944158931","Madhya Pradesh","Bhopal","Habibganj"
"Varun Rao","varun.rao@homebase.in","+91 8389465140","West Bengal","Howrah","Shibpur"
"Aditi Chandra","aditi.chandra@landpro.in","+91 6118154428","Chhattisgarh","Raipur","Devendra Nagar"
"Priya Dubey","priya.dubey@housejoy.in","+91 7439355865","Gujarat","Vadodara","Manjalpur"
"Megha Mukherjee","megha.mukherjee@landpro.in","+91 7694156109","Bihar","Gaya","GB Road"
"Neha Rawat","neha.rawat@dreamhome.in","+91 9241285693","Andhra Pradesh","Tirupati","Alipiri"
"Mohan Bhargava","mohan.bhargava@skyline.in","+91 6408442811","Tamil Nadu","Coimbatore","RS Puram"
"Deepa Kaur","deepa.kaur@cityrealty.in","+91 7270334656","Jharkhand","Jamshedpur","Sitaramdera"
"Tanvi Bose","tanvi.bose@estatecraft.in","+91 6187628954","Maharashtra","Pune","Magarpatta"
"Nilesh Pandey","nilesh.pandey@estatecraft.in","+91 7370571217","Maharashtra","Nashik","Gangapur Road"
"Padma Yadav","padma.yadav@realquest.in","+91 6829309805","Punjab","Chandigarh","Sector 8"
"Sanjay Reddy","sanjay.reddy@skyrealty.in","+91 7457728397","Uttar Pradesh","Noida","Sector 76"
"Pooja Oberoi","pooja.oberoi@primerealty.in","+91 8670383243","Maharashtra","Thane","Pokhran Road"
"Rashmi Bose","rashmi.bose@homes.in","+91 6193164210","Tamil Nadu","Coimbatore","Saibaba Colony"
"Sunita Nambiar","sunita.nambiar@propsearch.in","+91 6504214906","Maharashtra","Thane","Ghodbunder Road"
"Geeta Bhatt","geeta.bhatt@propmart.in","+91 8772631449","Andhra Pradesh","Vijayawada","MG Road"
"Hemant Sen","hemant.sen@primeplot.in","+91 7107452383","Madhya Pradesh","Gwalior","Birla Nagar"
"Naveen Gowda","naveen.gowda@homevista.in","+91 6370669466","Karnataka","Mangaluru","Attavar"
"Dinesh Kumar","dinesh.kumar@nestprop.in","+91 8676251308","Jharkhand","Ranchi","Lalpur"
"Archana Bose","archana.bose@estatepro.in","+91 7188345737","Assam","Guwahati","Paltan Bazaar"
"Ajay Nair","ajay.nair@flatzone.in","+91 9777262608","Uttar Pradesh","Noida","Sector 50"
"Swati Malhotra","swati.malhotra@estateplus.in","+91 6835591941","Maharashtra","Mumbai","Lower Parel"
"Siddharth Narayan","siddharth.narayan@propworld.in","+91 7791761256","Assam","Guwahati","Panbazar"
"Kartik Sinha","kartik.sinha@landview.in","+91 6460002055","Delhi","West Delhi","Tilak Nagar"
"Hemant Oberoi","hemant.oberoi@estateworld.in","+91 9624593248","Tamil Nadu","Chennai","Anna Nagar"
"Akash Narayan","akash.narayan@propvault.in","+91 6245116213","Kerala","Kochi","Kadavanthra"
"Rahul Arora","rahul.arora@housezone.in","+91 6543177503","Tamil Nadu","Tiruchirappalli","Woraiyur"
"Vivek Patel","vivek.patel@homespace.in","+91 9188229041","Karnataka","Mangaluru","Falnir"
"Bhavna Khanna","bhavna.khanna@cityrealty.in","+91 6567798882","Odisha","Bhubaneswar","Chandrasekharpur"
"Hemant Deshmukh","hemant.deshmukh@nestprop.in","+91 9486057128","Kerala","Kochi","MG Road"
"Varsha Soni","varsha.soni@urbanprop.in","+91 6322252348","Uttar Pradesh","Agra","Civil Lines"
"Santosh Bansal","santosh.bansal@estatecraft.in","+91 6014969270","Bihar","Patna","Kankarbagh"
"Suresh Reddy","suresh.reddy@dreamrealty.in","+91 7880120394","Andhra Pradesh","Vijayawada","Benz Circle"
"Mukesh Soni","mukesh.soni@urbanrealty.in","+91 8821976807","Gujarat","Surat","Pal"
"Dinesh Pandey","dinesh.pandey@estatepro.in","+91 9118309527","Tamil Nadu","Coimbatore","Peelamedu"
"Ashok Kaur","ashok.kaur@propease.in","+91 7411359662","Karnataka","Mangaluru","Falnir"
"Ajay Nambiar","ajay.nambiar@landcraft.in","+91 9803009910","Kerala","Thiruvananthapuram","Thycaud"
"Rahul Das","rahul.das@housecraft.in","+91 7416577519","Delhi","East Delhi","Laxmi Nagar"
"Archana Bhatt","archana.bhatt@estateworld.in","+91 9305496617","West Bengal","Howrah","Bally"
"Priya Rajan","priya.rajan@estatecraft.in","+91 9662435013","Gujarat","Vadodara","Karelibaug"
"Rohit Chandra","rohit.chandra@dreamrealty.in","+91 9979442922","Odisha","Cuttack","Tulasipur"
"Pooja Bhatt","pooja.bhatt@homebase.in","+91 6164948457","West Bengal","Howrah","Bally"
"Prakash Ghosh","prakash.ghosh@propease.in","+91 7340221428","Maharashtra","Nagpur","Sitabuldi"
"Arjun Dubey","arjun.dubey@landview.in","+91 7042167304","Jharkhand","Ranchi","Morabadi"
"Usha Mitra","usha.mitra@homespace.in","+91 9927612712","Uttarakhand","Haridwar","Shivalik Nagar"
"Girish Sinha","girish.sinha@estatepro.in","+91 9161468203","Chhattisgarh","Raipur","Tatibandh"
"Tushar Yadav","tushar.yadav@estatepro.in","+91 7167702853","Karnataka","Mangaluru","Bejai"
"Kunal Bose","kunal.bose@nestprop.in","+91 9268462074","Maharashtra","Nashik","Makhmalabad"
"Sunita Bhat","sunita.bhat@housingplus.in","+91 9678008786","Karnataka","Mysuru","Kuvempunagar"
"Pankaj Prasad","pankaj.prasad@propvault.in","+91 9065667070","Madhya Pradesh","Gwalior","Hazira"
"Rekha Bhatt","rekha.bhatt@propline.in","+91 9177945370","Punjab","Ludhiana","Dugri"
"Trupti Mishra","trupti.mishra@homehunt.in","+91 7573493432","West Bengal","Kolkata","Tollygunge"
"Ananya Kaur","ananya.kaur@urbanrealty.in","+91 9669714577","Tamil Nadu","Coimbatore","Sulur"
"Pankaj Chandra","pankaj.chandra@urbanrealty.in","+91 9557592426","Gujarat","Surat","Piplod"
"Ramesh Jain","ramesh.jain@landcraft.in","+91 6522747391","Tamil Nadu","Chennai","Adyar"
"Rajesh Sharma","rajesh.sharma@housezone.in","+91 8160266660","Haryana","Gurgaon","Sector 82"
"Amit Bose","amit.bose@flatfind.in","+91 7009394175","Haryana","Gurgaon","Sector 56"
"Sachin Soni","sachin.soni@homevista.in","+91 7935991929","Madhya Pradesh","Gwalior","Lashkar"
"Bhavna Krishnan","bhavna.krishnan@plotpoint.in","+91 9982951414","Andhra Pradesh","Tirupati","Renigunta Road"
"Seema Krishnan","seema.krishnan@propmart.in","+91 8936665216","Delhi","South Delhi","Hauz Khas"
"Rohit Gowda","rohit.gowda@flatzone.in","+91 9306381213","Uttar Pradesh","Agra","Kamla Nagar"
"Megha Reddy","megha.reddy@propsearch.in","+91 9961876445","Uttar Pradesh","Agra","Sikandra"
"Amit Bhatt","amit.bhatt@homes.in","+91 8650052150","Andhra Pradesh","Vijayawada","Auto Nagar"
"Sapna Chandra","sapna.chandra@urbanrealty.in","+91 8770162608","Telangana","Warangal","Lashkar Bazaar"
"Rahul Kulkarni","rahul.kulkarni@estateplus.in","+91 7452372096","Goa","Panaji","Caranzalem"
"Rashmi Venkat","rashmi.venkat@urbanspace.in","+91 6811296315","Jharkhand","Jamshedpur","Sitaramdera"
"Pallavi Bansal","pallavi.bansal@estatepro.in","+91 6863577869","Maharashtra","Nagpur","Laxmi Nagar"
"Tarun Sinha","tarun.sinha@homeclick.in","+91 8364715624","Maharashtra","Nagpur","Itwari"
"Ravi Kaur","ravi.kaur@realtyzone.in","+91 7852320254","Gujarat","Surat","City Light"
"Ajay Nambiar","ajay.nambiar@propsearch.in","+91 8270807022","Tamil Nadu","Coimbatore","Ganapathy"
"Pooja Pillai","pooja.pillai@propmart.in","+91 8522413663","Jharkhand","Jamshedpur","Baridih"
"Vikram Kumar","vikram.kumar@estateworld.in","+91 6978719195","Tamil Nadu","Coimbatore","Saibaba Colony"
"Manish Tyagi","manish.tyagi@urbanprop.in","+91 7703975956","Rajasthan","Jaipur","Sitapura"
"Manish Dubey","manish.dubey@homespace.in","+91 8409714356","Punjab","Ludhiana","Model Town"
"Ritu Ghosh","ritu.ghosh@smartrealty.in","+91 9032982021","Odisha","Bhubaneswar","Patia"
"Ganesh Mehta","ganesh.mehta@propworld.in","+91 7305000934","Tamil Nadu","Coimbatore","Ganapathy"
"Lata Oberoi","lata.oberoi@skyline.in","+91 7576653669","Punjab","Chandigarh","Sector 43"
"Gaurav Pillai","gaurav.pillai@propnet.in","+91 6528950380","Chhattisgarh","Raipur","Fafadih"
"Pankaj Gowda","pankaj.gowda@propease.in","+91 8171431208","Maharashtra","Thane","Vasant Vihar"
"Varsha Singh","varsha.singh@propworld.in","+91 9336904436","Maharashtra","Nagpur","Civil Lines"
"Naveen Goyal","naveen.goyal@cityrealty.in","+91 8520000548","Haryana","Faridabad","NIT"
"Manoj Hegde","manoj.hegde@primerealty.in","+91 9134038926","Gujarat","Rajkot","Astron Chowk"
"Jyoti Singh","jyoti.singh@housejoy.in","+91 6075357279","Karnataka","Mangaluru","Attavar"
"Aditi Tiwari","aditi.tiwari@cityrealty.in","+91 7582368016","Kerala","Ernakulam","Kaloor"
"Padma Bansal","padma.bansal@flatzone.in","+91 6288303628","Gujarat","Ahmedabad","Bopal"
"Radha Rao","radha.rao@propsearch.in","+91 8746622417","Karnataka","Bengaluru","Hebbal"
"Amit Sen","amit.sen@propview.in","+91 8946135587","Goa","Margao","Comba"
"Komal Sharma","komal.sharma@smartrealty.in","+91 6995721976","West Bengal","Siliguri","Sevoke Road"
"Rajesh Menon","rajesh.menon@propmart.in","+91 6870082394","Tamil Nadu","Madurai","Bibikulam"
"Sachin Soni","sachin.soni@realquest.in","+91 6733104788","Maharashtra","Nagpur","Civil Lines"
"Vivek Verma","vivek.verma@urbanprop.in","+91 6893625549","Uttar Pradesh","Agra","Sanjay Place"
"Pallavi Prasad","pallavi.prasad@plotpoint.in","+91 8586859231","Uttar Pradesh","Agra","Fatehabad Road"
"Bhavna Deshpande","bhavna.deshpande@cityrealty.in","+91 8168243861","Jharkhand","Jamshedpur","Golmuri"
"Naveen Rao","naveen.rao@housingplus.in","+91 7580664510","Kerala","Kozhikode","Vellimadukunnu"
"Madhuri Nair","madhuri.nair@housecraft.in","+91 6961893878","Delhi","South Delhi","Hauz Khas"
"Vinod Kulkarni","vinod.kulkarni@homevista.in","+91 7243983976","Kerala","Thiruvananthapuram","Pattom"
"Ganesh Iyer","ganesh.iyer@homevista.in","+91 7264974633","Gujarat","Vadodara","Vasna"
"Shweta Sethi","shweta.sethi@nestfinder.in","+91 8934297968","Karnataka","Bengaluru","Whitefield"
"Madhuri Sharma","madhuri.sharma@realty.in","+91 7637199823","Goa","Margao","Colva"
"Tarun Sen","tarun.sen@propvault.in","+91 6860418842","Gujarat","Ahmedabad","Navrangpura"
"Padma Bose","padma.bose@estateplus.in","+91 7812245004","Odisha","Cuttack","OMP Square"
"Rohan Saxena","rohan.saxena@propview.in","+91 8974927545","Jharkhand","Ranchi","Namkum"
"Meera Choudhary","meera.choudhary@flatfind.in","+91 9795118711","Karnataka","Bengaluru","Electronic City"
"Ajay Verma","ajay.verma@estateworld.in","+91 9295054545","Punjab","Chandigarh","Sector 35"
"Pooja Narayan","pooja.narayan@propmart.in","+91 7998083757","Jharkhand","Ranchi","Doranda"
"Neha Verma","neha.verma@propnet.in","+91 9259564970","Uttar Pradesh","Agra","Shahganj"
"Komal Choudhary","komal.choudhary@propease.in","+91 9608057169","Haryana","Faridabad","Sector 14"
"Tarun Deshmukh","tarun.deshmukh@landcraft.in","+91 9548057736","Andhra Pradesh","Vijayawada","MG Road"
"Hemant Mathur","hemant.mathur@flatfind.in","+91 8565493853","Jharkhand","Jamshedpur","Sitaramdera"
"Divya Oberoi","divya.oberoi@dreamhome.in","+91 6586863440","Rajasthan","Jodhpur","Pal Road"
"Trupti Soni","trupti.soni@propline.in","+91 9029002575","Maharashtra","Pune","Wakad"
"Divya Khanna","divya.khanna@estatecraft.in","+91 6066537100","West Bengal","Siliguri","Bhaktinagar"
"Ashok Naik","ashok.naik@estateplus.in","+91 6152671270","Kerala","Kozhikode","Beach Road"
"Ritu Ghosh","ritu.ghosh@homehunt.in","+91 6610126743","Chhattisgarh","Raipur","Fafadih"
"Kunal Tiwari","kunal.tiwari@homes.in","+91 9468043797","Bihar","Gaya","Station Road"
"Deepak Bansal","deepak.bansal@realty.in","+91 6570235206","Goa","Margao","Benaulim"
"Pankaj Trivedi","pankaj.trivedi@estateplus.in","+91 8321406383","Maharashtra","Thane","Vasant Vihar"
"Sachin Tiwari","sachin.tiwari@propnet.in","+91 9079169676","Maharashtra","Thane","Kolshet"
"Tarun Kapoor","tarun.kapoor@skyrealty.in","+91 9263233679","Gujarat","Surat","Katargam"
"Pankaj Sethi","pankaj.sethi@estatepro.in","+91 9260663085","Madhya Pradesh","Gwalior","Maharajpura"
"Sapna Agarwal","sapna.agarwal@estatepro.in","+91 8550509907","Delhi","New Delhi","Lajpat Nagar"
"Ganesh Trivedi","ganesh.trivedi@propview.in","+91 9353394044","Delhi","East Delhi","Krishna Nagar"
"Trupti Nambiar","trupti.nambiar@propsearch.in","+91 8100055634","Maharashtra","Nashik","College Road"
"Anjali Batra","anjali.batra@homehunt.in","+91 8142756936","West Bengal","Howrah","Shibpur"
"Archana Das","archana.das@skyline.in","+91 8920339703","West Bengal","Siliguri","Surya Sen Nagar"
"Nitin Ghosh","nitin.ghosh@homefind.in","+91 8714886218","Odisha","Cuttack","Buxi Bazaar"
"Hemant Dhawan","hemant.dhawan@housejoy.in","+91 8765429412","Odisha","Bhubaneswar","Saheed Nagar"
"Tushar Tyagi","tushar.tyagi@housejoy.in","+91 6081183556","Uttarakhand","Haridwar","BHEL"
"Pankaj Verma","pankaj.verma@propnet.in","+91 9564880453","Uttar Pradesh","Noida","Sector 50"
"Vivek Thakur","vivek.thakur@estatepro.in","+91 7206464335","Bihar","Patna","Exhibition Road"
"Rashmi Mishra","rashmi.mishra@propclick.in","+91 8028703391","Karnataka","Hubli","Tarihal"
"Vishal Patel","vishal.patel@landcraft.in","+91 6383442039","Karnataka","Mangaluru","Bendoorwell"
"Lata Narayan","lata.narayan@homefind.in","+91 8090401072","Haryana","Gurgaon","DLF Phase 3"
"Swati Saxena","swati.saxena@propline.in","+91 6728112335","Gujarat","Surat","City Light"
"Nitin Gill","nitin.gill@housejoy.in","+91 9399130926","Kerala","Ernakulam","Vyttila"
"Hemant Dhawan","hemant.dhawan@landcraft.in","+91 9828784816","Punjab","Ludhiana","Pakhowal Road"
"Siddharth Gupta","siddharth.gupta@nestfinder.in","+91 6863387153","Tamil Nadu","Coimbatore","Saibaba Colony"
"Jyoti Kumar","jyoti.kumar@flatfind.in","+91 9864879611","Rajasthan","Udaipur","Fatehpura"
"Renuka Tiwari","renuka.tiwari@smartrealty.in","+91 7306868766","Rajasthan","Jaipur","Vaishali Nagar"
"Vijay Malhotra","vijay.malhotra@estatepro.in","+91 8085732614","Gujarat","Vadodara","Karelibaug"
"Siddharth Chauhan","siddharth.chauhan@estatepro.in","+91 9207240970","Tamil Nadu","Madurai","KK Nagar"
"Manoj Prasad","manoj.prasad@homevista.in","+91 9229878361","Haryana","Gurgaon","Palam Vihar"
"Manish Prasad","manish.prasad@homeclick.in","+91 7472254645","Haryana","Gurgaon","Sector 67"
"Trupti Kaur","trupti.kaur@propease.in","+91 9508220077","West Bengal","Kolkata","Garia"
"Kavitha Krishnan","kavitha.krishnan@propnet.in","+91 6648809376","West Bengal","Kolkata","Dum Dum"
"Lakshmi Patel","lakshmi.patel@urbanprop.in","+91 8724620552","Madhya Pradesh","Bhopal","Habibganj"
"Ritu Arora","ritu.arora@skyline.in","+91 6605396426","Uttar Pradesh","Varanasi","Shivpur"
"Akash Shah","akash.shah@propline.in","+91 9648550196","Madhya Pradesh","Gwalior","Maharajpura"
"Kavitha Jain","kavitha.jain@urbanspace.in","+91 8852353829","Delhi","South Delhi","Mehrauli"
"Padma Batra","padma.batra@plotpoint.in","+91 8061741174","Odisha","Bhubaneswar","Khandagiri"
"Vivek Goyal","vivek.goyal@skyline.in","+91 9754196875","Madhya Pradesh","Gwalior","Thatipur"
"Meera Venkat","meera.venkat@skyline.in","+91 9445043501","Haryana","Panipat","Model Town"
"Durga Malhotra","durga.malhotra@homevista.in","+91 7317026689","Odisha","Cuttack","Naya Bazaar"
"Bhavna Reddy","bhavna.reddy@cityrealty.in","+91 9884820213","Delhi","West Delhi","Paschim Vihar"
"Priya Kulkarni","priya.kulkarni@flatfind.in","+91 9309420650","Uttar Pradesh","Agra","Kamla Nagar"
"Deepak Kulkarni","deepak.kulkarni@plotpoint.in","+91 8511726647","Punjab","Ludhiana","BRS Nagar"
"Prasad Kumar","prasad.kumar@propline.in","+91 9888273592","Uttarakhand","Haridwar","Jwalapur"
"Aditi Mitra","aditi.mitra@homespace.in","+91 7738860473","Odisha","Bhubaneswar","Saheed Nagar"
"Nitin Pawar","nitin.pawar@housezone.in","+91 7988544969","Kerala","Ernakulam","Thripunithura"
"Aditi Patel","aditi.patel@estatepro.in","+91 6076623290","Uttar Pradesh","Noida","Sector 62"
"Shobha Thakur","shobha.thakur@homespace.in","+91 8414353672","Jharkhand","Jamshedpur","Mango"
"Aditi Mukherjee","aditi.mukherjee@propview.in","+91 9859535992","Punjab","Amritsar","Lawrence Road"
"Nisha Krishnan","nisha.krishnan@housezone.in","+91 9180959873","Maharashtra","Thane","Majiwada"
"Preeti Ghosh","preeti.ghosh@propline.in","+91 9649472693","Maharashtra","Nashik","Rana Pratap Chowk"
"Kartik Gowda","kartik.gowda@urbanrealty.in","+91 7981729761","Kerala","Thiruvananthapuram","Medical College"
"Megha Patel","megha.patel@plotpoint.in","+91 7627104268","Gujarat","Surat","Pal"
"Girish Prasad","girish.prasad@nestfinder.in","+91 9580236902","Jharkhand","Jamshedpur","Baridih"
"Vivek Tiwari","vivek.tiwari@flatzone.in","+91 8709178143","Maharashtra","Thane","Kolshet"
"Mahesh Bhat","mahesh.bhat@flatfind.in","+91 9063271193","Haryana","Gurgaon","Sector 49"
"Ajay Batra","ajay.batra@dreamhome.in","+91 9393189324","Tamil Nadu","Coimbatore","Saibaba Colony"
"Vishal Goyal","vishal.goyal@homevista.in","+91 8000709596","West Bengal","Siliguri","Sevoke Road"
"Anjali Deshmukh","anjali.deshmukh@urbanrealty.in","+91 7194622101","Goa","Margao","Navelim"
"Madhuri Agarwal","madhuri.agarwal@housingplus.in","+91 8585997122","West Bengal","Kolkata","Behala"
"Komal Sharma","komal.sharma@housecraft.in","+91 7897574615","Chhattisgarh","Raipur","Tatibandh"
"Siddharth Goyal","siddharth.goyal@skyline.in","+91 9320005040","Haryana","Faridabad","Sector 16"
"Nilesh Batra","nilesh.batra@estatepro.in","+91 6139193153","Karnataka","Mangaluru","Hampankatta"
"Usha Mukherjee","usha.mukherjee@nexthome.in","+91 7436657314","Gujarat","Ahmedabad","Bopal"
"Ganesh Goyal","ganesh.goyal@homes.in","+91 6208983314","Uttarakhand","Dehradun","Chakrata Road"
"Manoj Saxena","manoj.saxena@cityrealty.in","+91 8677346400","Uttar Pradesh","Lucknow","Gomti Nagar"
"Vishal Das","vishal.das@realtyin.in","+91 8931428305","Andhra Pradesh","Vijayawada","Gunadala"
"Ritu Sinha","ritu.sinha@plotpoint.in","+91 9675956101","Punjab","Ludhiana","BRS Nagar"
"Rohan Dhawan","rohan.dhawan@housezone.in","+91 7412684406","Maharashtra","Nagpur","Ramdaspeth"
"Sunita Bhat","sunita.bhat@skyrealty.in","+91 9792976780","Uttar Pradesh","Lucknow","Vikas Nagar"
"Lakshmi Tyagi","lakshmi.tyagi@nestfinder.in","+91 7741619453","Uttar Pradesh","Agra","Civil Lines"
"Gauri Thakur","gauri.thakur@homehunt.in","+91 6948741471","Uttar Pradesh","Agra","Shahganj"
"Lakshmi Batra","lakshmi.batra@nestprop.in","+91 6232641507","Kerala","Thiruvananthapuram","Vellayambalam"
"Naveen Prasad","naveen.prasad@propclick.in","+91 9568363410","Andhra Pradesh","Visakhapatnam","Gopalapatnam"
"Sunita Verma","sunita.verma@landview.in","+91 9483924156","Chhattisgarh","Raipur","Tatibandh"
"Jyoti Agarwal","jyoti.agarwal@homes.in","+91 9685452174","Gujarat","Ahmedabad","Navrangpura"
"Lata Hegde","lata.hegde@estateworld.in","+91 7418466072","Punjab","Ludhiana","Rishi Nagar"
"Shweta Mishra","shweta.mishra@landview.in","+91 9103614556","Tamil Nadu","Chennai","T. Nagar"
"Aditi Rajan","aditi.rajan@realtyin.in","+91 9940962955","Odisha","Bhubaneswar","Rasulgarh"
"Shweta Gill","shweta.gill@dreamhome.in","+91 7655059670","Uttar Pradesh","Lucknow","Aashiyana"
"Siddharth Verma","siddharth.verma@primerealty.in","+91 7423734448","Gujarat","Surat","Vesu"
"Ashok Tiwari","ashok.tiwari@nestfinder.in","+91 7352048615","Uttar Pradesh","Noida","Sector 137"
"Vishal Thakur","vishal.thakur@homespace.in","+91 6975594691","Kerala","Kochi","Thevara"
"Karan Das","karan.das@realtyzone.in","+91 9424070981","Gujarat","Vadodara","Sayajigunj"
"Kirti Bhat","kirti.bhat@housecraft.in","+91 7558278447","Telangana","Hyderabad","Ameerpet"
"Ramesh Singh","ramesh.singh@urbanrealty.in","+91 7654732717","Telangana","Warangal","Nakkalagutta"
"Aniket Patil","aniket.patil@estateplus.in","+91 9201691978","Punjab","Ludhiana","Dugri"
"Madhuri Khanna","madhuri.khanna@dreamrealty.in","+91 6602287068","Gujarat","Vadodara","Akota"
"Rahul Soni","rahul.soni@estatecraft.in","+91 8265916592","Kerala","Kozhikode","Thondayad"
"Prakash Saxena","prakash.saxena@urbanrealty.in","+91 8850877806","Andhra Pradesh","Vijayawada","Governorpet"
"Rajesh Narayan","rajesh.narayan@skyline.in","+91 8441119636","Telangana","Warangal","Kazipet"
"Mukesh Iyer","mukesh.iyer@urbanspace.in","+91 7871510510","Jharkhand","Ranchi","HEC"
"Lakshmi Jain","lakshmi.jain@propsearch.in","+91 8594430834","Uttar Pradesh","Varanasi","Mahmoorganj"
"Kunal Tiwari","kunal.tiwari@plotpoint.in","+91 6060789139","Odisha","Cuttack","OMP Square"
"Lakshmi Deshpande","lakshmi.deshpande@propmart.in","+91 7843469413","Bihar","Patna","Budha Marg"
"Archana Arora","archana.arora@cityrealty.in","+91 9581278056","Madhya Pradesh","Indore","New Palasia"
"Nitin Nambiar","nitin.nambiar@propease.in","+91 9437966367","Rajasthan","Udaipur","Hiran Magri"
"Pranav Bhat","pranav.bhat@estatepro.in","+91 8649850224","West Bengal","Siliguri","Dagapur"
"Rajesh Kumar","rajesh.kumar@housezone.in","+91 6209319440","Karnataka","Bengaluru","Whitefield"
"Rashmi Bhatt","rashmi.bhatt@homevista.in","+91 8480416574","Gujarat","Ahmedabad","SG Highway"
"Asha Singh","asha.singh@housingplus.in","+91 8892414815","Punjab","Amritsar","Green Avenue"
"Asha Menon","asha.menon@urbanrealty.in","+91 6199092491","Gujarat","Surat","Pal"
"Anita Venkat","anita.venkat@homes.in","+91 8807408787","Andhra Pradesh","Tirupati","Chandragiri"
"Gaurav Sinha","gaurav.sinha@homevista.in","+91 9115099217","Maharashtra","Pune","Magarpatta"
"Pranav Naik","pranav.naik@propworld.in","+91 6516100178","Maharashtra","Nagpur","Byramji Town"
"Seema Bansal","seema.bansal@propsearch.in","+91 7651825790","Andhra Pradesh","Visakhapatnam","NAD Junction"
"Arjun Sethi","arjun.sethi@estateplus.in","+91 6233125372","Tamil Nadu","Coimbatore","Thudiyalur"
"Pooja Sharma","pooja.sharma@landview.in","+91 7912664621","Goa","Panaji","Caranzalem"
"Veena Mishra","veena.mishra@housezone.in","+91 9507707661","Assam","Guwahati","Ganeshguri"
"Pranav Chatterjee","pranav.chatterjee@dreamhome.in","+91 8630272395","Madhya Pradesh","Indore","Vijay Nagar"
"Sunita Mitra","sunita.mitra@plotpoint.in","+91 7430546290","Karnataka","Bengaluru","Koramangala"
"Veena Das","veena.das@estatepro.in","+91 6650763648","Gujarat","Vadodara","Gotri"
"Seema Singh","seema.singh@dreamhome.in","+91 9594996474","Kerala","Kozhikode","Eranhipalam"
"Suman Chatterjee","suman.chatterjee@skyline.in","+91 8650718509","Maharashtra","Thane","Vasant Vihar"
"Rahul Goyal","rahul.goyal@propmart.in","+91 6483736739","Maharashtra","Pune","Hinjewadi"
"Shobha Mitra","shobha.mitra@dreamrealty.in","+91 6170091895","Telangana","Warangal","Kazipet"
"Anjali Krishnan","anjali.krishnan@propworld.in","+91 8570230430","Odisha","Bhubaneswar","Khandagiri"
"Neha Das","neha.das@homes.in","+91 7924810398","Delhi","New Delhi","Malviya Nagar"
"Archana Mehta","archana.mehta@propnet.in","+91 7535540386","Maharashtra","Mumbai","Andheri West"
"Hemant Iyer","hemant.iyer@propnet.in","+91 9510462613","Uttar Pradesh","Varanasi","Cantonment"
"Renuka Reddy","renuka.reddy@homehunt.in","+91 8804795766","West Bengal","Howrah","Golabari"
"Varsha Kapoor","varsha.kapoor@cityrealty.in","+91 8713782683","Odisha","Cuttack","Naya Bazaar"
"Sunita Nair","sunita.nair@homespace.in","+91 8731459233","Madhya Pradesh","Bhopal","Habibganj"
"Padma Gupta","padma.gupta@propworld.in","+91 7100721607","Bihar","Gaya","Manpur"
"Sapna Reddy","sapna.reddy@propsearch.in","+91 9772722300","Tamil Nadu","Chennai","Thiruvanmiyur"
"Ajay Nambiar","ajay.nambiar@propvault.in","+91 6465257532","Tamil Nadu","Chennai","Anna Nagar"
"Swati Sharma","swati.sharma@propclick.in","+91 6536926056","Rajasthan","Jodhpur","Sardarpura"
"Tushar Narayan","tushar.narayan@housezone.in","+91 8081892486","Telangana","Warangal","Pochamma Maidan"
"Ramesh Verma","ramesh.verma@primerealty.in","+91 9750906368","Maharashtra","Pune","Aundh"
"Kartik Kaur","kartik.kaur@homehunt.in","+91 7746434186","Kerala","Thiruvananthapuram","Vazhuthacaud"
"Vishal Bose","vishal.bose@urbanprop.in","+91 9186214666","West Bengal","Siliguri","Surya Sen Nagar"
"Akash Oberoi","akash.oberoi@homefind.in","+91 7216398364","Tamil Nadu","Coimbatore","Thudiyalur"
"Mukesh Gupta","mukesh.gupta@housejoy.in","+91 8292978496","Andhra Pradesh","Tirupati","RC Road"
"Akash Venkat","akash.venkat@urbanrealty.in","+91 6209079116","Delhi","East Delhi","Patparganj"
"Karan Goyal","karan.goyal@primeplot.in","+91 8367690556","Madhya Pradesh","Bhopal","Habibganj"
"Pranav Sethi","pranav.sethi@estateworld.in","+91 7084791235","Andhra Pradesh","Visakhapatnam","Madhurawada"
"Preeti Singh","preeti.singh@skyline.in","+91 9676892999","Kerala","Thiruvananthapuram","Kesavadasapuram"
"Nitin Bhatt","nitin.bhatt@housejoy.in","+91 6111102668","Maharashtra","Thane","Kolshet"
"Suman Deshmukh","suman.deshmukh@urbanspace.in","+91 7271174800","Odisha","Bhubaneswar","Khandagiri"
"Aditi Tyagi","aditi.tyagi@homefind.in","+91 6560676932","Uttar Pradesh","Varanasi","Cantonment"
"Lakshmi Tiwari","lakshmi.tiwari@primeplot.in","+91 9903544496","Gujarat","Rajkot","Kalawad Road"
"Dinesh Mehta","dinesh.mehta@homes.in","+91 7364438320","Andhra Pradesh","Visakhapatnam","NAD Junction"
"Tanvi Narayan","tanvi.narayan@estatecraft.in","+91 8911224500","Madhya Pradesh","Gwalior","City Center"
"Anita Ghosh","anita.ghosh@estateplus.in","+91 9740041433","Karnataka","Mysuru","Gokulam"
"Kirti Sen","kirti.sen@housecraft.in","+91 6299464697","Jharkhand","Ranchi","Morabadi"
"Nisha Mahajan","nisha.mahajan@propsearch.in","+91 6375485949","Delhi","West Delhi","Uttam Nagar"
"Manish Narayan","manish.narayan@skyline.in","+91 6394758822","Karnataka","Mysuru","Jayalakshmipuram"
"Rahul Kapoor","rahul.kapoor@estateworld.in","+91 6727523523","Jharkhand","Jamshedpur","Telco"
"Santosh Sinha","santosh.sinha@housingplus.in","+91 9929079341","Andhra Pradesh","Tirupati","Tirumala"
"Seema Kapoor","seema.kapoor@nestprop.in","+91 9157786575","Tamil Nadu","Madurai","Tallakulam"
"Asha Kulkarni","asha.kulkarni@urbanrealty.in","+91 9792014508","Andhra Pradesh","Visakhapatnam","Gajuwaka"
"Rekha Rao","rekha.rao@dreamhome.in","+91 8761852034","Bihar","Gaya","Swarajpuri"
"Lakshmi Venkat","lakshmi.venkat@homeclick.in","+91 7818402605","Haryana","Gurgaon","Sector 67"
"Komal Dubey","komal.dubey@homebase.in","+91 6309982494","Delhi","West Delhi","Tilak Nagar"
"Sanjay Sharma","sanjay.sharma@realquest.in","+91 8237803724","Maharashtra","Nashik","Indira Nagar"
"Sarita Deshmukh","sarita.deshmukh@landpro.in","+91 6400830469","Maharashtra","Nagpur","Laxmi Nagar"
"Smita Pillai","smita.pillai@dreamhome.in","+91 6142208915","Delhi","East Delhi","Shakarpur"
"Sunita Batra","sunita.batra@nestprop.in","+91 9352764863","Tamil Nadu","Coimbatore","RS Puram"
"Prasad Pillai","prasad.pillai@realty.in","+91 6850627024","West Bengal","Howrah","Santragachi"
"Sanjay Reddy","sanjay.reddy@homevista.in","+91 7916904104","Haryana","Gurgaon","Golf Course Road"
"Arjun Joshi","arjun.joshi@landview.in","+91 8727366415","Rajasthan","Jaipur","Sitapura"
"Vikram Sethi","vikram.sethi@housingplus.in","+91 9371559250","Delhi","East Delhi","Vishwas Nagar"
"Anita Sharma","anita.sharma@homes.in","+91 6508868323","Gujarat","Ahmedabad","Bopal"
"Rashmi Reddy","rashmi.reddy@propline.in","+91 9854842608","Telangana","Warangal","Ramnagar"
"Preeti Menon","preeti.menon@cityrealty.in","+91 8470416524","Andhra Pradesh","Tirupati","RC Road"
"Manoj Dhawan","manoj.dhawan@homes.in","+91 9956599414","Uttar Pradesh","Noida","Sector 63"
"Meera Bhat","meera.bhat@plotpoint.in","+91 9681425133","Karnataka","Mangaluru","Kankanady"
"Pranav Das","pranav.das@estateplus.in","+91 6843785501","Bihar","Patna","Fraser Road"
"Megha Batra","megha.batra@homevista.in","+91 8581510948","Gujarat","Surat","City Light"
"Prasad Gowda","prasad.gowda@landpro.in","+91 8508511617","Gujarat","Rajkot","Nana Mauva"
"Suman Sethi","suman.sethi@propmart.in","+91 8763127222","Karnataka","Bengaluru","Hebbal"
"Tanvi Soni","tanvi.soni@housejoy.in","+91 6691784649","Odisha","Cuttack","OMP Square"
"Ananya Tiwari","ananya.tiwari@smartrealty.in","+91 7885855659","Punjab","Chandigarh","Sector 26"
"Arjun Kumar","arjun.kumar@homefind.in","+91 9407717215","Kerala","Kozhikode","Beach Road"
"Prasad Tyagi","prasad.tyagi@homeclick.in","+91 6813434235","West Bengal","Howrah","Golabari"
"Sunita Rajan","sunita.rajan@homefind.in","+91 8408282536","West Bengal","Siliguri","Matigara"
"Shobha Bhatt","shobha.bhatt@realquest.in","+91 6477736422","Tamil Nadu","Madurai","Bibikulam"
"Smita Batra","smita.batra@plotpoint.in","+91 7956899155","Jharkhand","Ranchi","Namkum"
"Usha Rawat","usha.rawat@estatepro.in","+91 7451064011","Madhya Pradesh","Gwalior","Jhansi Road"
"Karan Soni","karan.soni@homes.in","+91 9959550057","Haryana","Gurgaon","Sector 56"
"Kartik Dubey","kartik.dubey@primerealty.in","+91 9995208121","Punjab","Ludhiana","Gurdev Nagar"
"Sunil Sen","sunil.sen@homevista.in","+91 6649225925","Uttar Pradesh","Agra","Dayal Bagh"
"Ritu Bhargava","ritu.bhargava@homeclick.in","+91 6800433986","Gujarat","Surat","Vesu"
"Harish Nair","harish.nair@estatecraft.in","+91 9833959626","Goa","Panaji","Miramar"
"Hemant Kaur","hemant.kaur@propnet.in","+91 6055519496","Telangana","Warangal","Hanamkonda"
"Champa Chatterjee","champa.chatterjee@housecraft.in","+91 8861873119","Karnataka","Bengaluru","JP Nagar"
"Pranav Patel","pranav.patel@estateplus.in","+91 7546599834","West Bengal","Siliguri","Surya Sen Nagar"
"Jyoti Rajan","jyoti.rajan@urbanrealty.in","+91 7236846863","Gujarat","Surat","Piplod"
"Ganesh Krishnan","ganesh.krishnan@dreamrealty.in","+91 9077740618","Haryana","Gurgaon","Golf Course Road"
"Sanjay Verma","sanjay.verma@primerealty.in","+91 7979347073","Rajasthan","Udaipur","Bhatt Ji Ki Bari"
"Meera Bansal","meera.bansal@nexthome.in","+91 6233986965","Uttar Pradesh","Lucknow","Aliganj"
"Gaurav Sen","gaurav.sen@realty.in","+91 9188411161","Uttar Pradesh","Agra","Sanjay Place"
"Madhuri Sinha","madhuri.sinha@landpro.in","+91 9086608301","Rajasthan","Jaipur","Raja Park"
"Meera Pandey","meera.pandey@nestprop.in","+91 7319366207","West Bengal","Howrah","Domjur"
"Arun Bose","arun.bose@plotpoint.in","+91 9881625681","Odisha","Cuttack","Link Road"
"Arun Sharma","arun.sharma@propmart.in","+91 7353052577","Kerala","Thiruvananthapuram","Medical College"
"Ananya Pawar","ananya.pawar@estatecraft.in","+91 7198004418","Rajasthan","Udaipur","University Road"
"Siddharth Sen","siddharth.sen@housingplus.in","+91 9856819862","Karnataka","Bengaluru","Indiranagar"
"Arun Agarwal","arun.agarwal@housezone.in","+91 6028687776","Bihar","Patna","Rajendra Nagar"
"Ajay Yadav","ajay.yadav@propclick.in","+91 7403429411","Gujarat","Ahmedabad","SG Highway"
"Vishal Agarwal","vishal.agarwal@dreamhome.in","+91 9295949604","Karnataka","Mangaluru","Urva"
"Ashok Patil","ashok.patil@urbanprop.in","+91 8477592875","Rajasthan","Jaipur","Sitapura"
"Rohit Krishnan","rohit.krishnan@propvault.in","+91 9974071712","Jharkhand","Ranchi","Morabadi"
"Ashok Menon","ashok.menon@homespace.in","+91 9971510055","Rajasthan","Udaipur","Fatehpura"
"Prakash Mahajan","prakash.mahajan@realquest.in","+91 9472584157","Kerala","Thiruvananthapuram","Vellayambalam"
"Sapna Tyagi","sapna.tyagi@propease.in","+91 9007147862","Gujarat","Surat","Dumas Road"
"Lakshmi Nambiar","lakshmi.nambiar@landpro.in","+91 7356749527","West Bengal","Howrah","Bally"
"Amit Mahajan","amit.mahajan@propline.in","+91 9404256563","Karnataka","Mysuru","Jayalakshmipuram"
"Sunita Naik","sunita.naik@skyline.in","+91 8856017406","Haryana","Gurgaon","Sector 56"
"Megha Prasad","megha.prasad@dreamrealty.in","+91 7326456224","Telangana","Warangal","Kazipet"
"Shobha Nambiar","shobha.nambiar@estateworld.in","+91 6367254632","Odisha","Bhubaneswar","Mancheswar"
"Nilesh Sharma","nilesh.sharma@urbanrealty.in","+91 7853219541","Telangana","Warangal","Nakkalagutta"
"Tanvi Narayan","tanvi.narayan@propease.in","+91 7981983001","Karnataka","Hubli","Lingarajnagar"
"Suman Joshi","suman.joshi@dreamrealty.in","+91 7914367087","Uttar Pradesh","Varanasi","Bhelupur"
"Pranav Rajan","pranav.rajan@realty.in","+91 9060867243","Karnataka","Mangaluru","Kadri"
"Trupti Naik","trupti.naik@skyrealty.in","+91 6002504220","West Bengal","Siliguri","Salugara"
"Veena Gowda","veena.gowda@urbanspace.in","+91 9317363714","Bihar","Patna","Exhibition Road"
"Radha Reddy","radha.reddy@propvault.in","+91 7167240640","Rajasthan","Jaipur","Vaishali Nagar"
"Ganesh Singh","ganesh.singh@cityrealty.in","+91 9534975712","Karnataka","Bengaluru","Indiranagar"
"Tanvi Goyal","tanvi.goyal@nestprop.in","+91 9434120668","Madhya Pradesh","Indore","Bhawarkuan"
"Dinesh Rajan","dinesh.rajan@dreamhome.in","+91 6760236748","Gujarat","Surat","Piplod"
"Ravi Thakur","ravi.thakur@realtyin.in","+91 7382420309","Punjab","Amritsar","Green Avenue"
"Veena Pawar","veena.pawar@housejoy.in","+91 8846814865","Maharashtra","Pune","Kharadi"
"Pooja Saxena","pooja.saxena@flatfind.in","+91 7355468142","Uttar Pradesh","Agra","Sanjay Place"
"Vivek Thakur","vivek.thakur@homeclick.in","+91 8425109146","Telangana","Hyderabad","Kondapur"
"Smita Oberoi","smita.oberoi@estateworld.in","+91 9967296115","Madhya Pradesh","Bhopal","Ayodhya Nagar"
"Bhavna Narayan","bhavna.narayan@housecraft.in","+91 6628484318","Maharashtra","Mumbai","Goregaon"
"Neha Batra","neha.batra@propnet.in","+91 9124285521","Uttarakhand","Haridwar","Shivalik Nagar"
"Vivek Soni","vivek.soni@landpro.in","+91 6972347051","Kerala","Thiruvananthapuram","Thycaud"
"Ritu Shah","ritu.shah@urbanspace.in","+91 8329187220","Madhya Pradesh","Indore","Sudama Nagar"
"Manoj Mathur","manoj.mathur@homespace.in","+91 8696259793","Uttar Pradesh","Varanasi","Sigra"
"Archana Deshpande","archana.deshpande@cityrealty.in","+91 9709840455","Rajasthan","Jaipur","Mansarovar"
"Anita Oberoi","anita.oberoi@primerealty.in","+91 7948723288","Gujarat","Surat","Dumas Road"
"Naveen Deshpande","naveen.deshpande@flatfind.in","+91 7348860972","Assam","Guwahati","Ulubari"
"Varun Arora","varun.arora@urbanrealty.in","+91 9345536175","Maharashtra","Pune","Hadapsar"
"Tarun Malhotra","tarun.malhotra@landcraft.in","+91 8267041372","Kerala","Thiruvananthapuram","Vazhuthacaud"
"Meera Rao","meera.rao@flatfind.in","+91 6297467183","Maharashtra","Pune","Koregaon Park"
"Mohan Batra","mohan.batra@realtyzone.in","+91 6108174400","Kerala","Thiruvananthapuram","Kesavadasapuram"
"Kavitha Tyagi","kavitha.tyagi@propworld.in","+91 8055677324","Madhya Pradesh","Bhopal","Bairagarh"
"Champa Venkat","champa.venkat@propmart.in","+91 6587499206","Uttar Pradesh","Varanasi","Lanka"
"Nisha Nambiar","nisha.nambiar@realty.in","+91 9514873649","Telangana","Hyderabad","Begumpet"
"Deepak Agarwal","deepak.agarwal@urbanprop.in","+91 6860694583","Uttar Pradesh","Agra","Dayal Bagh"
"Dinesh Mishra","dinesh.mishra@estatecraft.in","+91 9181308554","Uttar Pradesh","Varanasi","Shivpur"
"Vivek Dhawan","vivek.dhawan@propnet.in","+91 7713808361","Odisha","Cuttack","Cantonment"
"Mohan Jain","mohan.jain@homeclick.in","+91 8676268949","Kerala","Ernakulam","Aluva"
"Ashok Mahajan","ashok.mahajan@nestprop.in","+91 9519434989","Uttarakhand","Haridwar","Shivalik Nagar"
"Rohan Dubey","rohan.dubey@nexthome.in","+91 7550012664","West Bengal","Siliguri","Surya Sen Nagar"
"Renuka Menon","renuka.menon@housingplus.in","+91 7349391126","Telangana","Warangal","Ramnagar"
"Tanvi Yadav","tanvi.yadav@propmart.in","+91 6026838507","Kerala","Kozhikode","Chevayur"
"Suresh Yadav","suresh.yadav@estatepro.in","+91 7903503752","Karnataka","Mangaluru","Kankanady"
"Seema Deshpande","seema.deshpande@dreamrealty.in","+91 8320596087","Tamil Nadu","Chennai","Anna Nagar"
"Kirti Pawar","kirti.pawar@housejoy.in","+91 8490455817","Haryana","Panipat","GT Road"
"Shweta Gowda","shweta.gowda@skyrealty.in","+91 9958748311","Maharashtra","Thane","Ghodbunder Road"
"Rohit Dhawan","rohit.dhawan@propclick.in","+91 6339613744","Uttarakhand","Dehradun","Dalanwala"
"Asha Rajan","asha.rajan@primerealty.in","+91 7972090371","Tamil Nadu","Chennai","Adyar"
"Manoj Nambiar","manoj.nambiar@propease.in","+91 8068403807","Odisha","Cuttack","Link Road"
"Smita Malhotra","smita.malhotra@propline.in","+91 6826027962","Jharkhand","Ranchi","Kanke Road"
"Prakash Patel","prakash.patel@estateworld.in","+91 8131612848","Uttarakhand","Dehradun","Ballupur"
"Anita Mukherjee","anita.mukherjee@realtyzone.in","+91 6355955047","Bihar","Patna","Budha Marg"
"Veena Menon","veena.menon@realty.in","+91 8260232816","Jharkhand","Jamshedpur","Sakchi"
"Megha Venkat","megha.venkat@smartrealty.in","+91 8686140219","Uttar Pradesh","Lucknow","Aliganj"
"Deepak Kulkarni","deepak.kulkarni@landcraft.in","+91 6726136167","Gujarat","Surat","Dumas Road"
"Ashok Gupta","ashok.gupta@homebase.in","+91 7052340127","Delhi","West Delhi","Vikaspuri"
"Kirti Gowda","kirti.gowda@homespace.in","+91 8553996516","Gujarat","Surat","Vesu"
"Rajesh Kaur","rajesh.kaur@homevista.in","+91 6197707039","Goa","Panaji","Campal"
"Deepak Das","deepak.das@cityrealty.in","+91 6406801160","Tamil Nadu","Tiruchirappalli","KK Nagar"
"Trupti Choudhary","trupti.choudhary@estateworld.in","+91 6318512843","Kerala","Ernakulam","Marine Drive"
"Ajay Jain","ajay.jain@propvault.in","+91 8597109328","Rajasthan","Udaipur","Sukhadia Circle"
"Smita Patel","smita.patel@housezone.in","+91 7524265845","Uttarakhand","Haridwar","Roorkee Road"
"Rekha Naik","rekha.naik@landview.in","+91 8083505312","Telangana","Warangal","Subedari"
"Tanvi Dubey","tanvi.dubey@estatecraft.in","+91 6021411866","Rajasthan","Udaipur","Bhatt Ji Ki Bari"
"Tarun Hegde","tarun.hegde@realty.in","+91 7686979726","Gujarat","Rajkot","Astron Chowk"
"Vijay Chauhan","vijay.chauhan@estatepro.in","+91 8147698265","Andhra Pradesh","Tirupati","Tirumala"
"Archana Venkat","archana.venkat@plotpoint.in","+91 7831005727","Gujarat","Vadodara","Sayajigunj"
"Sapna Chandra","sapna.chandra@nestprop.in","+91 8173820453","Odisha","Bhubaneswar","Mancheswar"
"Gaurav Verma","gaurav.verma@flatfind.in","+91 7224043573","Odisha","Bhubaneswar","Jaydev Vihar"
"Deepa Saxena","deepa.saxena@realtyin.in","+91 6158464544","Rajasthan","Udaipur","University Road"
"Rajesh Mathur","rajesh.mathur@realquest.in","+91 8117320863","Goa","Panaji","Santa Cruz"
"Ashok Venkat","ashok.venkat@nexthome.in","+91 8155977564","Gujarat","Surat","Althan"
"Rohit Gupta","rohit.gupta@landview.in","+91 9978534064","Maharashtra","Thane","Ghodbunder Road"
"Hemant Shah","hemant.shah@realtyin.in","+91 9168489116","Maharashtra","Mumbai","Borivali"
"Pallavi Bhatt","pallavi.bhatt@smartrealty.in","+91 9369863009","Rajasthan","Udaipur","Hiran Magri"
"Sarita Shah","sarita.shah@propmart.in","+91 9722311262","Uttarakhand","Haridwar","Bahadrabad"
"Mahesh Bhargava","mahesh.bhargava@plotpoint.in","+91 8227195484","Maharashtra","Mumbai","Bandra"
"Aniket Reddy","aniket.reddy@propnet.in","+91 9625857023","Kerala","Kozhikode","Thondayad"
"Geeta Gill","geeta.gill@plotpoint.in","+91 9941247543","Telangana","Warangal","Pochamma Maidan"
"Santosh Tiwari","santosh.tiwari@nestfinder.in","+91 8636087153","Uttar Pradesh","Agra","Fatehabad Road"
"Rohit Agarwal","rohit.agarwal@homeclick.in","+91 8160279010","Jharkhand","Jamshedpur","Sakchi"
"Nitin Goyal","nitin.goyal@homes.in","+91 9693957361","Gujarat","Ahmedabad","SG Highway"
"Ajay Malhotra","ajay.malhotra@dreamrealty.in","+91 9917309523","Rajasthan","Jaipur","Raja Park"
"Sunita Soni","sunita.soni@homespace.in","+91 8302326605","Bihar","Gaya","Ramshila"
"Seema Narayan","seema.narayan@propworld.in","+91 7721305223","Tamil Nadu","Coimbatore","Ganapathy"
"Deepa Deshpande","deepa.deshpande@estateworld.in","+91 6174551269","Haryana","Gurgaon","Sector 49"
"Sunita Jain","sunita.jain@homeclick.in","+91 6912485364","Maharashtra","Thane","Naupada"
"Ganesh Gill","ganesh.gill@realtyin.in","+91 7564207573","Rajasthan","Jodhpur","Ratanada"
"Ritu Tiwari","ritu.tiwari@propworld.in","+91 7243211660","Uttar Pradesh","Agra","Tajganj"
"Dinesh Bose","dinesh.bose@propnet.in","+91 8529622285","Bihar","Patna","Pataliputra"
"Pallavi Goyal","pallavi.goyal@realty.in","+91 8981771535","Kerala","Kozhikode","Feroke"
"Aniket Gill","aniket.gill@landcraft.in","+91 8479727649","Karnataka","Mysuru","Kuvempunagar"
"Vijay Sethi","vijay.sethi@propsearch.in","+91 8728756285","Maharashtra","Pune","Magarpatta"
"Amit Venkat","amit.venkat@realtyin.in","+91 9584882174","Madhya Pradesh","Gwalior","Jhansi Road"
"Ananya Gill","ananya.gill@plotpoint.in","+91 8413020724","Odisha","Bhubaneswar","Bomikhal"
"Suresh Kulkarni","suresh.kulkarni@dreamrealty.in","+91 9653027162","Rajasthan","Jaipur","Jagatpura"
"Pallavi Kaur","pallavi.kaur@propview.in","+91 7225933184","Chhattisgarh","Raipur","Gudhiyari"
"Sanjay Arora","sanjay.arora@propview.in","+91 9059988394","Madhya Pradesh","Indore","Sudama Nagar"
"Arjun Bhargava","arjun.bhargava@propview.in","+91 8638234558","Gujarat","Rajkot","150 Feet Ring Road"
"Kirti Bhargava","kirti.bhargava@urbanrealty.in","+91 6835359719","Bihar","Gaya","Tekari Road"
"Madhuri Patel","madhuri.patel@realtyin.in","+91 6958389516","Maharashtra","Nashik","Satpur"
"Mukesh Sen","mukesh.sen@homespace.in","+91 7936799000","Bihar","Patna","Bailey Road"
"Nisha Kumar","nisha.kumar@homes.in","+91 9791830486","Karnataka","Hubli","Vidyanagar"
"Pankaj Sharma","pankaj.sharma@nexthome.in","+91 9220076246","Gujarat","Vadodara","Gotri"
"Suresh Kulkarni","suresh.kulkarni@landview.in","+91 9639847852","Tamil Nadu","Coimbatore","Ganapathy"
"Nisha Deshmukh","nisha.deshmukh@homevista.in","+91 7164729526","Maharashtra","Nagpur","Dharampeth"
"Usha Singh","usha.singh@flatzone.in","+91 9549853410","Madhya Pradesh","Indore","AB Road"
"Geeta Mitra","geeta.mitra@dreamrealty.in","+91 8172906727","Maharashtra","Nashik","Rana Pratap Chowk"
"Deepa Batra","deepa.batra@realquest.in","+91 7499079328","Maharashtra","Nagpur","Sitabuldi"
"Deepak Kumar","deepak.kumar@homehunt.in","+91 6996872067","Gujarat","Vadodara","Race Course"
"Manish Oberoi","manish.oberoi@urbanprop.in","+91 9035411318","Uttar Pradesh","Lucknow","Alambagh"
"Sunita Hegde","sunita.hegde@landview.in","+91 8544560901","Uttar Pradesh","Lucknow","Aashiyana"
"Akash Deshpande","akash.deshpande@propnet.in","+91 9284077650","Haryana","Faridabad","NIT"
"Rohan Verma","rohan.verma@propvault.in","+91 9016762856","Delhi","New Delhi","Dwarka"
"Manju Mathur","manju.mathur@homebase.in","+91 6177925029","Tamil Nadu","Chennai","Tambaram"
"Geeta Gupta","geeta.gupta@landcraft.in","+91 8880954576","Kerala","Thiruvananthapuram","Kazhakkoottam"
"Renuka Venkat","renuka.venkat@housecraft.in","+91 9720590888","Punjab","Amritsar","Ranjit Avenue"
"Champa Mishra","champa.mishra@estatecraft.in","+91 8014718574","Jharkhand","Ranchi","HEC"
"Sapna Saxena","sapna.saxena@realtyzone.in","+91 7459300902","Maharashtra","Nagpur","Ramdaspeth"
"Nitin Ghosh","nitin.ghosh@propnet.in","+91 6801698603","Tamil Nadu","Tiruchirappalli","Puthur"
"Archana Khanna","archana.khanna@realquest.in","+91 9120952238","Chhattisgarh","Raipur","Civil Lines"
"Vikram Chauhan","vikram.chauhan@propline.in","+91 6151094306","Assam","Guwahati","GS Road"
"Padma Patil","padma.patil@propvault.in","+91 7961869379","Madhya Pradesh","Gwalior","Birla Nagar"
"Sapna Venkat","sapna.venkat@propline.in","+91 6873681877","West Bengal","Howrah","Golabari"
"Rahul Yadav","rahul.yadav@housecraft.in","+91 7027198540","West Bengal","Siliguri","Hakim Para"
"Siddharth Krishnan","siddharth.krishnan@smartrealty.in","+91 8281982562","Assam","Guwahati","Zoo Road"
"Sanjay Bhatt","sanjay.bhatt@propline.in","+91 6525388541","Kerala","Kozhikode","Pantheerankavu"
"Trupti Joshi","trupti.joshi@dreamhome.in","+91 9691557098","Odisha","Cuttack","OMP Square"
"Bhavna Venkat","bhavna.venkat@propease.in","+91 6904652553","Madhya Pradesh","Gwalior","Hazira"
"Sarita Chatterjee","sarita.chatterjee@propnet.in","+91 7357964372","Chhattisgarh","Raipur","Civil Lines"
"Rahul Naik","rahul.naik@housezone.in","+91 7723316426","Gujarat","Rajkot","Nana Mauva"
"Vikram Choudhary","vikram.choudhary@propview.in","+91 7426752810","Uttar Pradesh","Lucknow","Aliganj"
"Girish Gill","girish.gill@estatecraft.in","+91 6874568884","Madhya Pradesh","Indore","MG Road"
"Rashmi Pillai","rashmi.pillai@landcraft.in","+91 6955543987","West Bengal","Siliguri","Dagapur"
"Pooja Mukherjee","pooja.mukherjee@realtyin.in","+91 6737600922","Odisha","Cuttack","Cantonment"
"Ravi Bhatt","ravi.bhatt@nestfinder.in","+91 8516816484","Delhi","West Delhi","Uttam Nagar"
"Arun Dhawan","arun.dhawan@housecraft.in","+91 6262702360","Uttarakhand","Dehradun","Subhash Nagar"
"Arjun Rawat","arjun.rawat@propnet.in","+91 7551828425","Uttar Pradesh","Noida","Sector 44"
"Pooja Rao","pooja.rao@propclick.in","+91 9944088970","West Bengal","Siliguri","Hill Cart Road"
"Amit Malhotra","amit.malhotra@plotpoint.in","+91 8356124905","Goa","Margao","Gogol"
"Anita Thakur","anita.thakur@nestfinder.in","+91 6408015301","Delhi","East Delhi","Shakarpur"
"Jyoti Sen","jyoti.sen@homes.in","+91 6766252792","Kerala","Thiruvananthapuram","Ulloor"
"Veena Kumar","veena.kumar@skyrealty.in","+91 7816363001","Tamil Nadu","Chennai","Velachery"
"Hemant Mitra","hemant.mitra@estatepro.in","+91 8679422819","Maharashtra","Mumbai","Worli"
"Ramesh Menon","ramesh.menon@propnet.in","+91 9907295366","Delhi","South Delhi","Sarita Vihar"
"Deepa Sen","deepa.sen@housecraft.in","+91 8116454064","Karnataka","Mysuru","Hebbal"
"Bhavna Nambiar","bhavna.nambiar@propclick.in","+91 6884488836","Madhya Pradesh","Gwalior","Thatipur"
"Usha Dhawan","usha.dhawan@landcraft.in","+91 9352211322","Gujarat","Surat","Katargam"
"Harish Pillai","harish.pillai@estatepro.in","+91 6500403699","Uttar Pradesh","Varanasi","Lanka"
"Yogesh Hegde","yogesh.hegde@estateplus.in","+91 7188955333","Maharashtra","Pune","Koregaon Park"
"Rohan Nair","rohan.nair@propsearch.in","+91 9221505890","Punjab","Ludhiana","Rajguru Nagar"
"Ravi Dubey","ravi.dubey@nexthome.in","+91 7450462847","Delhi","New Delhi","Green Park"
"Vishal Deshpande","vishal.deshpande@estateplus.in","+91 9692527052","Maharashtra","Thane","Vasant Vihar"
"Lata Mitra","lata.mitra@estateplus.in","+91 8507759149","Andhra Pradesh","Vijayawada","Governorpet"
"Seema Deshmukh","seema.deshmukh@propworld.in","+91 9213457481","Telangana","Hyderabad","Gachibowli"
"Rahul Rao","rahul.rao@dreamrealty.in","+91 8101437736","Tamil Nadu","Madurai","Mattuthavani"
"Radha Krishnan","radha.krishnan@estateworld.in","+91 8834708214","Haryana","Gurgaon","Sector 56"
"Gaurav Pawar","gaurav.pawar@primeplot.in","+91 6874636377","Assam","Guwahati","Panbazar"
"Sanjay Agarwal","sanjay.agarwal@cityrealty.in","+91 6077055247","Karnataka","Mangaluru","Kadri"
"Varun Pillai","varun.pillai@homeclick.in","+91 8771330527","Andhra Pradesh","Vijayawada","Patamata"
"Manoj Rajan","manoj.rajan@housecraft.in","+91 8971811035","Uttarakhand","Haridwar","Roorkee Road"
"Archana Soni","archana.soni@estatepro.in","+91 9088875794","Rajasthan","Udaipur","Shobhagpura"
"Lakshmi Chatterjee","lakshmi.chatterjee@primeplot.in","+91 9789318166","Gujarat","Vadodara","Fatehgunj"
"Yogesh Bansal","yogesh.bansal@homeclick.in","+91 6756765366","Maharashtra","Nashik","Pathardi"
"Nilesh Kaur","nilesh.kaur@estateworld.in","+91 8131184046","Madhya Pradesh","Bhopal","Shahpura"
"Anjali Sinha","anjali.sinha@urbanprop.in","+91 8142479504","Punjab","Chandigarh","Sector 22"
"Prakash Nair","prakash.nair@propclick.in","+91 9377614837","Punjab","Amritsar","GT Road"
"Champa Agarwal","champa.agarwal@plotpoint.in","+91 6196908767","Kerala","Thiruvananthapuram","Medical College"
"Amit Rawat","amit.rawat@dreamrealty.in","+91 7666130556","Maharashtra","Pune","Kharadi"
"Vishal Patel","vishal.patel@skyrealty.in","+91 9839963094","Goa","Panaji","Caranzalem"
"Durga Mishra","durga.mishra@propnet.in","+91 6718682916","Goa","Panaji","Caranzalem"
"Divya Gill","divya.gill@propclick.in","+91 9317589110","Rajasthan","Jaipur","Mansarovar"
"Lakshmi Kaur","lakshmi.kaur@propworld.in","+91 7642483731","Tamil Nadu","Madurai","Tallakulam"
"Kartik Yadav","kartik.yadav@realty.in","+91 7308000312","Madhya Pradesh","Bhopal","MP Nagar"
"Sarita Nambiar","sarita.nambiar@homespace.in","+91 6779331511","Uttarakhand","Dehradun","Ballupur"
"Tushar Arora","tushar.arora@estatecraft.in","+91 6401104558","Jharkhand","Ranchi","Morabadi"
"Smita Gupta","smita.gupta@skyline.in","+91 8869996646","Maharashtra","Nashik","Pathardi"
"Priya Batra","priya.batra@propview.in","+91 8104066706","Jharkhand","Ranchi","HEC"
"Gaurav Sethi","gaurav.sethi@realtyzone.in","+91 6523452189","Bihar","Gaya","Civil Lines"
"Mahesh Iyer","mahesh.iyer@housejoy.in","+91 7229425606","Delhi","New Delhi","Connaught Place"
"Seema Sen","seema.sen@housejoy.in","+91 7612527017","Uttarakhand","Haridwar","Roorkee Road"
"Anita Prasad","anita.prasad@plotpoint.in","+91 7525645143","Andhra Pradesh","Vijayawada","Auto Nagar"
"Megha Mukherjee","megha.mukherjee1@landpro.in","+91 8521158561","Tamil Nadu","Coimbatore","Gandhipuram"
"Aniket Dubey","aniket.dubey@plotpoint.in","+91 9262502195","Uttar Pradesh","Agra","Shahganj"
"Gauri Dhawan","gauri.dhawan@primerealty.in","+91 6903230303","Goa","Margao","Comba"
"Harish Sen","harish.sen@propmart.in","+91 8705613886","Rajasthan","Jaipur","Vaishali Nagar"
"Prasad Khanna","prasad.khanna@landview.in","+91 6609623245","Rajasthan","Udaipur","Fatehpura"
"Ajay Deshmukh","ajay.deshmukh@homebase.in","+91 8890409393","Karnataka","Mangaluru","Attavar"
"Trupti Sharma","trupti.sharma@propclick.in","+91 7632075503","Kerala","Ernakulam","Palarivattom"
"Meera Saxena","meera.saxena@propease.in","+91 7105752626","Karnataka","Bengaluru","Koramangala"
"Tarun Gupta","tarun.gupta@urbanspace.in","+91 7514267194","Gujarat","Surat","Adajan"
"Dinesh Dubey","dinesh.dubey@skyline.in","+91 6418865806","Haryana","Faridabad","Sector 21"
"Ananya Patil","ananya.patil@dreamrealty.in","+91 7311392671","West Bengal","Siliguri","Matigara"
"Sneha Mukherjee","sneha.mukherjee@nestfinder.in","+91 7465791848","Maharashtra","Thane","Vasant Vihar"
"Sachin Kapoor","sachin.kapoor@homefind.in","+91 9164884575","Jharkhand","Jamshedpur","Sitaramdera"
"Bhavna Soni","bhavna.soni@flatzone.in","+91 9636914722","Punjab","Chandigarh","Sector 9"
"Seema Trivedi","seema.trivedi@estatepro.in","+91 6636817393","Odisha","Bhubaneswar","Nayapalli"
"Arun Deshpande","arun.deshpande@propworld.in","+91 8996309688","Gujarat","Vadodara","Vasna"
"Manoj Chandra","manoj.chandra@landview.in","+91 6478517193","Delhi","South Delhi","Okhla"
"Trupti Gowda","trupti.gowda@realquest.in","+91 8884459510","Madhya Pradesh","Indore","New Palasia"
"Vinod Pawar","vinod.pawar@propworld.in","+91 6390321193","Rajasthan","Udaipur","Hiran Magri"
"Sarita Shah","sarita.shah@nestprop.in","+91 6607293445","Maharashtra","Nashik","Gangapur Road"
"Swati Mahajan","swati.mahajan@homehunt.in","+91 6277045554","Jharkhand","Ranchi","Bariatu"
"Arjun Deshmukh","arjun.deshmukh@flatfind.in","+91 7431101990","Gujarat","Ahmedabad","Vastrapur"
"Tanvi Kaur","tanvi.kaur@homeclick.in","+91 8929382982","Chhattisgarh","Raipur","Fafadih"
"Sanjay Kaur","sanjay.kaur@flatzone.in","+91 9923052348","Maharashtra","Pune","Kothrud"
"Santosh Khanna","santosh.khanna@homespace.in","+91 9233506247","Tamil Nadu","Madurai","Mattuthavani"
"Naveen Gowda","naveen.gowda1@homevista.in","+91 9419738269","Rajasthan","Udaipur","Pratap Nagar"
"Radha Jain","radha.jain@dreamrealty.in","+91 6743402954","Tamil Nadu","Madurai","Palanganatham"
"Geeta Prasad","geeta.prasad@dreamrealty.in","+91 9631519158","Uttar Pradesh","Varanasi","Bhelupur"
"Geeta Mathur","geeta.mathur@estateworld.in","+91 8030968410","Punjab","Amritsar","Lawrence Road"
"Nilesh Bhargava","nilesh.bhargava@primerealty.in","+91 7215215331","Maharashtra","Nashik","Gangapur Road"
"Vivek Patil","vivek.patil@flatzone.in","+91 9415254013","Madhya Pradesh","Bhopal","Shahpura"
"Amit Agarwal","amit.agarwal@urbanprop.in","+91 8586434195","Haryana","Panipat","GT Road"
"Vijay Narayan","vijay.narayan@estateplus.in","+91 6952878994","Kerala","Kochi","Vytilla"
"Mukesh Goyal","mukesh.goyal@flatfind.in","+91 9598955974","Rajasthan","Jaipur","Raja Park"
"Arjun Kapoor","arjun.kapoor@plotpoint.in","+91 9123133517","Uttar Pradesh","Agra","Kamla Nagar"
"Ravi Rajan","ravi.rajan@plotpoint.in","+91 7221791627","Karnataka","Hubli","Malmaddi"
"Rohan Mahajan","rohan.mahajan@homehunt.in","+91 7549307832","Bihar","Gaya","GB Road"
"Mukesh Saxena","mukesh.saxena@primeplot.in","+91 9806042270","Maharashtra","Thane","Panchpakhadi"
"Madhuri Bose","madhuri.bose@propease.in","+91 7060393043","Punjab","Amritsar","Majitha Road"
"Durga Kapoor","durga.kapoor@propclick.in","+91 8160473713","Kerala","Kochi","Mattancherry"
"Akash Verma","akash.verma@smartrealty.in","+91 9272186696","Delhi","West Delhi","Tilak Nagar"
"Asha Bhargava","asha.bhargava@urbanprop.in","+91 9923739398","Uttar Pradesh","Lucknow","Aliganj"
"Sapna Tyagi","sapna.tyagi@nestfinder.in","+91 7302355911","Kerala","Kozhikode","Mavoor Road"
"Santosh Menon","santosh.menon@urbanprop.in","+91 7274455594","Delhi","New Delhi","Nehru Place"
"Pankaj Chauhan","pankaj.chauhan@cityrealty.in","+91 9147852357","Odisha","Cuttack","Tulasipur"
"Harish Kapoor","harish.kapoor@dreamhome.in","+91 9389346483","Madhya Pradesh","Gwalior","Hazira"
"Gauri Sinha","gauri.sinha@cityrealty.in","+91 7683335768","Karnataka","Bengaluru","Hebbal"
"Sanjay Khanna","sanjay.khanna@propsearch.in","+91 9080341563","Maharashtra","Nashik","Indira Nagar"
"Rohan Das","rohan.das@flatfind.in","+91 7333670584","Punjab","Amritsar","Kennedy Avenue"
"Varsha Pandey","varsha.pandey@homehunt.in","+91 8804577146","Delhi","West Delhi","Subhash Nagar"
"Amit Kumar","amit.kumar@landcraft.in","+91 9701100562","West Bengal","Howrah","Shibpur"
"Tarun Ghosh","tarun.ghosh@housecraft.in","+91 6458540172","Delhi","East Delhi","Krishna Nagar"
"Kavitha Gowda","kavitha.gowda@nestprop.in","+91 9640078175","Punjab","Ludhiana","BRS Nagar"
"Preeti Jain","preeti.jain@cityrealty.in","+91 6802738304","Bihar","Patna","Pataliputra"
"Siddharth Reddy","siddharth.reddy@homeclick.in","+91 6260110455","Gujarat","Ahmedabad","Bopal"
"Ramesh Hegde","ramesh.hegde@plotpoint.in","+91 6523614829","Kerala","Thiruvananthapuram","Vellayambalam"
"Amit Rawat","amit.rawat@housezone.in","+91 8222662446","Haryana","Faridabad","Sector 16"
"Smita Choudhary","smita.choudhary@propnet.in","+91 6930293119","Andhra Pradesh","Visakhapatnam","Gopalapatnam"
"Nitin Bansal","nitin.bansal@landpro.in","+91 6817804480","Rajasthan","Jaipur","Tonk Road"
"Komal Mitra","komal.mitra@estateworld.in","+91 8280148958","Tamil Nadu","Chennai","Adyar"
"Suman Reddy","suman.reddy@nestfinder.in","+91 8805847955","Madhya Pradesh","Indore","Vijay Nagar"
"Manish Agarwal","manish.agarwal@housezone.in","+91 9941323373","Goa","Panaji","Ribandar"
"Shweta Mehta","shweta.mehta@estateplus.in","+91 9048794431","Madhya Pradesh","Gwalior","Thatipur"
"Tanvi Bhatt","tanvi.bhatt@homebase.in","+91 6083754822","Uttar Pradesh","Agra","Dayal Bagh"
"Sunil Narayan","sunil.narayan@dreamhome.in","+91 6511567839","Gujarat","Vadodara","Alkapuri"
"Smita Gill","smita.gill@estatepro.in","+91 8566134743","Assam","Guwahati","Maligaon"
"Ajay Bhargava","ajay.bhargava@homehunt.in","+91 6189087059","Tamil Nadu","Coimbatore","Sulur"
"Ritu Bose","ritu.bose@realquest.in","+91 9636763535","Kerala","Ernakulam","Aluva"
"Padma Bhat","padma.bhat@propview.in","+91 9847516190","Maharashtra","Mumbai","Goregaon"
"Tushar Gill","tushar.gill@homespace.in","+91 8823451023","Uttar Pradesh","Lucknow","Rajajipuram"
"Neha Bhat","neha.bhat@nexthome.in","+91 6409089673","Punjab","Ludhiana","Pakhowal Road"
"Archana Arora","archana.arora@landcraft.in","+91 6305957919","Kerala","Kochi","Elamakkara"
"Gaurav Deshpande","gaurav.deshpande@homefind.in","+91 7482817134","Chhattisgarh","Raipur","Mowa"
"Arjun Deshmukh","arjun.deshmukh@nexthome.in","+91 8354068896","Odisha","Bhubaneswar","Rasulgarh"
"Padma Soni","padma.soni@propview.in","+91 8667880762","Rajasthan","Udaipur","Sukhadia Circle"
"Divya Iyer","divya.iyer@landview.in","+91 8262150376","Tamil Nadu","Madurai","Bibikulam"
"Rahul Ghosh","rahul.ghosh@primerealty.in","+91 8210131403","Madhya Pradesh","Bhopal","Govindpura"
"Sanjay Yadav","sanjay.yadav@propease.in","+91 9501861960","Andhra Pradesh","Visakhapatnam","Rushikonda"
"Sarita Sharma","sarita.sharma@smartrealty.in","+91 8918529683","Rajasthan","Jodhpur","Sardarpura"
"Sunil Batra","sunil.batra@propworld.in","+91 8997815637","Tamil Nadu","Tiruchirappalli","Puthur"
"Usha Gupta","usha.gupta@propnet.in","+91 6088968986","Uttar Pradesh","Noida","Sector 120"
"Kavitha Bhatt","kavitha.bhatt@smartrealty.in","+91 7728549575","Jharkhand","Jamshedpur","Baridih"
"Yogesh Venkat","yogesh.venkat@propworld.in","+91 8666825099","Uttar Pradesh","Noida","Sector 18"
"Kartik Choudhary","kartik.choudhary@propnet.in","+91 9075305561","Maharashtra","Mumbai","Worli"
"Ganesh Kulkarni","ganesh.kulkarni@estatepro.in","+91 7396670399","Gujarat","Rajkot","Nana Mauva"
"Ajay Chauhan","ajay.chauhan@homehunt.in","+91 6102183479","Rajasthan","Jaipur","Sodala"
"Divya Pillai","divya.pillai@urbanspace.in","+91 9845792332","Jharkhand","Ranchi","Ashok Nagar"
"Bhavna Gowda","bhavna.gowda@urbanprop.in","+91 9274531383","Telangana","Warangal","Kazipet"
"Rekha Chatterjee","rekha.chatterjee@propvault.in","+91 8518128380","Gujarat","Vadodara","Harni"
"Tushar Arora","tushar.arora@homebase.in","+91 8667543380","Tamil Nadu","Tiruchirappalli","KK Nagar"
"Manju Bhat","manju.bhat@urbanspace.in","+91 8102856250","Haryana","Gurgaon","MG Road"
"Megha Jain","megha.jain@dreamrealty.in","+91 7334762466","Haryana","Gurgaon","Sector 49"
"Jyoti Oberoi","jyoti.oberoi@estatepro.in","+91 6169381269","Bihar","Patna","Kankarbagh"
"Rajesh Kapoor","rajesh.kapoor@realty.in","+91 7403766509","Goa","Panaji","Tonca"
"Kirti Pillai","kirti.pillai@urbanprop.in","+91 8664639069","Jharkhand","Jamshedpur","Adityapur"
"Preeti Ghosh","preeti.ghosh@housingplus.in","+91 7165585051","Madhya Pradesh","Gwalior","Maharajpura"
"Madhuri Patil","madhuri.patil@homefind.in","+91 8545526909","Goa","Panaji","Campal"
"Siddharth Arora","siddharth.arora@flatzone.in","+91 6939962112","Punjab","Chandigarh","Sector 35"
"Champa Jain","champa.jain@landview.in","+91 6940213885","Gujarat","Vadodara","Karelibaug"
"Pallavi Trivedi","pallavi.trivedi@propmart.in","+91 9660223714","Gujarat","Ahmedabad","SG Highway"
"Priya Patel","priya.patel@urbanprop.in","+91 6051769515","Kerala","Thiruvananthapuram","Ulloor"
"Bhavna Krishnan","bhavna.krishnan@homefind.in","+91 7287892277","Maharashtra","Pune","Koregaon Park"
"Prakash Batra","prakash.batra@skyrealty.in","+91 8793760019","Madhya Pradesh","Gwalior","Hazira"
"Ramesh Joshi","ramesh.joshi@nestprop.in","+91 8131241528","Andhra Pradesh","Tirupati","AIR Bypass"
"Prakash Rao","prakash.rao@estateworld.in","+91 9896314609","Haryana","Faridabad","Neelam Chowk"
"Varun Verma","varun.verma@smartrealty.in","+91 6405780911","West Bengal","Howrah","Santragachi"
"Champa Rao","champa.rao@realtyzone.in","+91 6162323602","Delhi","South Delhi","Okhla"
"Harish Agarwal","harish.agarwal@estateworld.in","+91 7385042385","Uttar Pradesh","Agra","Fatehabad Road"
"Harish Tiwari","harish.tiwari@homevista.in","+91 8347835315","Karnataka","Mangaluru","Falnir"
"Siddharth Singh","siddharth.singh@urbanrealty.in","+91 8831065998","Gujarat","Vadodara","Alkapuri"
"Trupti Dhawan","trupti.dhawan@housejoy.in","+91 6216814346","Bihar","Gaya","Swarajpuri"
"Rohan Verma","rohan.verma@flatzone.in","+91 6775448267","Uttar Pradesh","Agra","Sanjay Place"
"Gaurav Joshi","gaurav.joshi@nestprop.in","+91 6010253100","Tamil Nadu","Tiruchirappalli","KK Nagar"
"Smita Goyal","smita.goyal@homebase.in","+91 6043620702","Delhi","New Delhi","Vasant Kunj"
"Rajesh Shah","rajesh.shah@estatecraft.in","+91 7707240260","Madhya Pradesh","Bhopal","Shahpura"
"Renuka Malhotra","renuka.malhotra@homeclick.in","+91 9670523411","Haryana","Gurgaon","Sector 47"
"Ritu Hegde","ritu.hegde@realquest.in","+91 8697745146","Haryana","Gurgaon","Sector 67"
"Manoj Batra","manoj.batra@nestfinder.in","+91 7748058900","West Bengal","Howrah","Liluah"
"Jyoti Bhatt","jyoti.bhatt@nestprop.in","+91 8429331021","West Bengal","Kolkata","Dum Dum"
"Tanvi Batra","tanvi.batra@propworld.in","+91 7211531238","Gujarat","Vadodara","Akota"
"Ritu Kapoor","ritu.kapoor@flatfind.in","+91 8405287129","Maharashtra","Thane","Panchpakhadi"
"Sunita Gill","sunita.gill@urbanprop.in","+91 6233319806","Maharashtra","Thane","Naupada"
"Champa Gupta","champa.gupta@dreamrealty.in","+91 6834216420","Odisha","Bhubaneswar","Nayapalli"
"Renuka Bhat","renuka.bhat@propease.in","+91 9118202360","Tamil Nadu","Coimbatore","Saibaba Colony"
"Ajay Patel","ajay.patel@urbanprop.in","+91 8693852491","Maharashtra","Nagpur","Sitabuldi"
"Pranav Arora","pranav.arora@propline.in","+91 6270036124","Kerala","Ernakulam","Aluva"
"Harish Rawat","harish.rawat@smartrealty.in","+91 6843322669","West Bengal","Siliguri","Hakim Para"
"Sneha Soni","sneha.soni@skyline.in","+91 8197817043","Haryana","Panipat","Model Town"
"Prakash Iyer","prakash.iyer@homespace.in","+91 6220036460","West Bengal","Siliguri","Hill Cart Road"
"Vijay Chandra","vijay.chandra@smartrealty.in","+91 9310673343","Telangana","Hyderabad","Banjara Hills"
"Padma Naik","padma.naik@housejoy.in","+91 8664751779","Jharkhand","Jamshedpur","Bistupur"
"Anjali Kaur","anjali.kaur@nestfinder.in","+91 7641565233","Bihar","Gaya","Civil Lines"
"Geeta Rajan","geeta.rajan@estatecraft.in","+91 9725630906","Assam","Guwahati","Paltan Bazaar"
"Lakshmi Kapoor","lakshmi.kapoor@nestfinder.in","+91 6665475882","Karnataka","Mysuru","Jayalakshmipuram"
"Lakshmi Sethi","lakshmi.sethi@skyrealty.in","+91 7479151237","Punjab","Chandigarh","Sector 17"
"Kunal Joshi","kunal.joshi@primeplot.in","+91 9401718408","Odisha","Cuttack","Choudhury Bazaar"
"Mahesh Trivedi","mahesh.trivedi@propease.in","+91 7960285248","Punjab","Ludhiana","Civil Lines"
"Anita Das","anita.das@estateworld.in","+91 7744136658","West Bengal","Kolkata","Park Street"
"Gaurav Deshpande","gaurav.deshpande@housejoy.in","+91 8041590078","Jharkhand","Jamshedpur","Mango"
"Radha Naik","radha.naik@primerealty.in","+91 6117109608","Assam","Guwahati","Chandmari"
"Karan Mehta","karan.mehta@homevista.in","+91 8077137969","Goa","Margao","Monte Hill"
"Sarita Mishra","sarita.mishra@estatepro.in","+91 7306875473","Karnataka","Mangaluru","Urva"
"Sanjay Rajan","sanjay.rajan@homevista.in","+91 9244441086","Madhya Pradesh","Gwalior","Jhansi Road"
"Sunil Kapoor","sunil.kapoor@realtyzone.in","+91 8071070359","Karnataka","Bengaluru","Whitefield"
"Bhavna Tyagi","bhavna.tyagi@smartrealty.in","+91 8722452722","Delhi","New Delhi","Dwarka"
"Deepa Rajan","deepa.rajan@urbanprop.in","+91 6533773889","Karnataka","Mysuru","Jayalakshmipuram"
"Mahesh Patel","mahesh.patel@landpro.in","+91 9898163119","Rajasthan","Jaipur","Pratap Nagar"
"Anita Sethi","anita.sethi@propvault.in","+91 6942353067","Uttar Pradesh","Varanasi","Kakarmatta"
"Arun Chauhan","arun.chauhan@estatecraft.in","+91 6800378651","Haryana","Gurgaon","Sector 49"
"Pranav Jain","pranav.jain@homeclick.in","+91 6574326336","Delhi","New Delhi","Dwarka"
"Akash Bose","akash.bose@propclick.in","+91 6119645381","Chhattisgarh","Raipur","Civil Lines"
"Prakash Sen","prakash.sen@estatecraft.in","+91 6069245702","West Bengal","Howrah","Bally"
"Vivek Saxena","vivek.saxena@homebase.in","+91 7246431318","Rajasthan","Jodhpur","Paota"
"Ganesh Mehta","ganesh.mehta@homeclick.in","+91 6255437942","Jharkhand","Ranchi","Main Road"
"Kavitha Narayan","kavitha.narayan@urbanspace.in","+91 6425223112","Odisha","Bhubaneswar","Baramunda"
"Lakshmi Pillai","lakshmi.pillai@realtyin.in","+91 9455304837","Goa","Margao","Navelim"
"Harish Batra","harish.batra@estatecraft.in","+91 7399528055","Karnataka","Mysuru","Lakshmipuram"
"Durga Yadav","durga.yadav@nestfinder.in","+91 8142322339","Gujarat","Vadodara","Manjalpur"
"Veena Saxena","veena.saxena@estatecraft.in","+91 8121354248","Rajasthan","Jodhpur","Air Force Area"
"Santosh Singh","santosh.singh@plotpoint.in","+91 7524965481","Gujarat","Ahmedabad","Gota"
"Sanjay Deshpande","sanjay.deshpande@homes.in","+91 8357543475","Gujarat","Ahmedabad","SG Highway"
"Arun Patil","arun.patil@urbanrealty.in","+91 6413260938","Gujarat","Ahmedabad","Prahlad Nagar"
"Varun Patel","varun.patel@primerealty.in","+91 6883655756","Rajasthan","Jaipur","Sitapura"
"Vikram Iyer","vikram.iyer@skyline.in","+91 7098634427","Delhi","East Delhi","IP Extension"
"Prakash Ghosh","prakash.ghosh@realquest.in","+91 9797789737","Maharashtra","Mumbai","Malad"
"Mohan Singh","mohan.singh@realtyin.in","+91 8973915276","Madhya Pradesh","Gwalior","Birla Nagar"
"Yogesh Gill","yogesh.gill@skyline.in","+91 8606618254","Andhra Pradesh","Vijayawada","Bandar Road"
"Nisha Rawat","nisha.rawat@housejoy.in","+91 7665542452","Rajasthan","Udaipur","Bhatt Ji Ki Bari"
"Vishal Trivedi","vishal.trivedi@landpro.in","+91 7228556271","Delhi","East Delhi","Vishwas Nagar"
"Mohan Bhat","mohan.bhat@nexthome.in","+91 9356834384","Andhra Pradesh","Vijayawada","Labbipet"
"Rajesh Narayan","rajesh.narayan@flatzone.in","+91 8605322560","Rajasthan","Udaipur","Shobhagpura"
"Champa Mitra","champa.mitra@propworld.in","+91 6607069062","Maharashtra","Thane","Vasant Vihar"
"Vivek Deshmukh","vivek.deshmukh@housejoy.in","+91 8359254137","Madhya Pradesh","Gwalior","Dabra Road"
"Ajay Mishra","ajay.mishra@primeplot.in","+91 9694933819","Odisha","Bhubaneswar","Rasulgarh"
"Manish Kapoor","manish.kapoor@nestprop.in","+91 8263335206","Delhi","West Delhi","Vikaspuri"
"Durga Dubey","durga.dubey@flatfind.in","+91 7669668643","Rajasthan","Jaipur","Sodala"
"Bhavna Rawat","bhavna.rawat@nexthome.in","+91 6078052495","Uttar Pradesh","Noida","Sector 76"
"Vijay Dubey","vijay.dubey@homeclick.in","+91 7305366168","Karnataka","Bengaluru","Indiranagar"
"Amit Rajan","amit.rajan@skyrealty.in","+91 6839344238","Maharashtra","Nashik","Deolali"
"Sunil Rajan","sunil.rajan@homefind.in","+91 6132929068","Bihar","Gaya","Civil Lines"
"Mohan Bose","mohan.bose@housingplus.in","+91 6324135925","Odisha","Bhubaneswar","Jaydev Vihar"
"Prakash Bhat","prakash.bhat@propsearch.in","+91 8544926286","Rajasthan","Udaipur","Chetak Circle"
"Ramesh Bhat","ramesh.bhat@housecraft.in","+91 6011529584","Delhi","East Delhi","Shakarpur"
"Ananya Singh","ananya.singh@homehunt.in","+91 9432932421","Goa","Panaji","Tonca"
"Lakshmi Narayan","lakshmi.narayan@housezone.in","+91 7517020737","Delhi","South Delhi","Sainik Farm"
"Pallavi Menon","pallavi.menon@estatepro.in","+91 7028504678","Telangana","Warangal","Lashkar Bazaar"
"Usha Mukherjee","usha.mukherjee@propnet.in","+91 7288764155","Gujarat","Ahmedabad","Thaltej"
"Shobha Mishra","shobha.mishra@propview.in","+91 7078099083","Maharashtra","Thane","Majiwada"
"Sachin Thakur","sachin.thakur@homeclick.in","+91 9738470320","Madhya Pradesh","Indore","MG Road"
"Akash Patel","akash.patel@propmart.in","+91 8092518529","West Bengal","Howrah","Santragachi"
"Sachin Patel","sachin.patel@propclick.in","+91 9825058512","Kerala","Kozhikode","Palayam"
"Neha Sethi","neha.sethi@propsearch.in","+91 7232751204","Kerala","Kozhikode","Thondayad"
"Nilesh Pawar","nilesh.pawar@urbanspace.in","+91 6009046859","Jharkhand","Jamshedpur","Golmuri"
"Akash Deshpande","akash.deshpande@estateworld.in","+91 9036260440","Maharashtra","Nashik","Deolali"
"Suresh Venkat","suresh.venkat@skyrealty.in","+91 9585998066","Gujarat","Vadodara","Gotri"
"Pallavi Bhat","pallavi.bhat@realquest.in","+91 8291014485","Delhi","New Delhi","Vasant Kunj"
"Pallavi Dhawan","pallavi.dhawan@landpro.in","+91 7682900311","Maharashtra","Nashik","College Road"
"Anjali Nair","anjali.nair@propease.in","+91 9735335058","Haryana","Faridabad","Sector 37"
"Deepa Bhat","deepa.bhat@housejoy.in","+91 6503799584","Telangana","Hyderabad","Jubilee Hills"
"Arun Sinha","arun.sinha@nexthome.in","+91 6587210202","Karnataka","Hubli","Lingarajnagar"
"Manoj Patil","manoj.patil@propease.in","+91 8766592247","Maharashtra","Pune","Wakad"
"Ajay Rajan","ajay.rajan@flatzone.in","+91 8590882758","Madhya Pradesh","Gwalior","City Center"
"Rahul Mitra","rahul.mitra@flatzone.in","+91 9164340477","West Bengal","Siliguri","Surya Sen Nagar"
"Sarita Kapoor","sarita.kapoor@skyline.in","+91 6247221462","Rajasthan","Jodhpur","Ratanada"
"Aniket Rawat","aniket.rawat@propworld.in","+91 7396250047","Tamil Nadu","Chennai","Anna Nagar"
"Kartik Nair","kartik.nair@propview.in","+91 8083897403","Haryana","Gurgaon","MG Road"
"Tanvi Gill","tanvi.gill@realtyin.in","+91 8194028524","Gujarat","Vadodara","Race Course"
"Harish Trivedi","harish.trivedi@estatepro.in","+91 9488474894","Tamil Nadu","Chennai","Mylapore"
"Vinod Yadav","vinod.yadav@dreamrealty.in","+91 9488454200","Uttar Pradesh","Noida","Sector 63"
"Pooja Hegde","pooja.hegde@smartrealty.in","+91 6419377321","Uttar Pradesh","Varanasi","Lanka"
"Rekha Dhawan","rekha.dhawan@landview.in","+91 6878258952","Karnataka","Bengaluru","Sarjapur Road"
"Meera Sethi","meera.sethi@primeplot.in","+91 6756176534","Delhi","New Delhi","Dwarka"
"Priya Mahajan","priya.mahajan@estateworld.in","+91 9643660658","Haryana","Panipat","Sector 25"
"Nitin Shah","nitin.shah@cityrealty.in","+91 9270706318","Rajasthan","Jodhpur","Mandore Road"
"Bhavna Patil","bhavna.patil@nestfinder.in","+91 8533791733","Haryana","Gurgaon","DLF Phase 3"
"Smita Deshpande","smita.deshpande@dreamhome.in","+91 9104545192","Delhi","West Delhi","Dwarka Mor"
"Asha Bose","asha.bose@estateplus.in","+91 8169178742","Tamil Nadu","Chennai","T. Nagar"
"Vinod Agarwal","vinod.agarwal@propsearch.in","+91 9313739285","Tamil Nadu","Chennai","OMR"
"Vishal Agarwal","vishal.agarwal@landpro.in","+91 6875529908","Karnataka","Mysuru","Vijayanagar"
"Seema Verma","seema.verma@primerealty.in","+91 6031283201","Karnataka","Mangaluru","Urva"
"Archana Jain","archana.jain@dreamhome.in","+91 7225553460","Kerala","Ernakulam","Vyttila"
"Deepak Krishnan","deepak.krishnan@estatecraft.in","+91 9564633115","Haryana","Panipat","Devi Lal Colony"
"Gaurav Ghosh","gaurav.ghosh@propvault.in","+91 6889213176","Tamil Nadu","Coimbatore","Ganapathy"
"Madhuri Kapoor","madhuri.kapoor@nestprop.in","+91 6783015145","Haryana","Gurgaon","Sector 56"
"Usha Goyal","usha.goyal@primerealty.in","+91 6397356825","West Bengal","Howrah","Belur"
"Renuka Singh","renuka.singh@homeclick.in","+91 6820757060","Gujarat","Rajkot","Yagnik Road"
"Vikram Kumar","vikram.kumar@landpro.in","+91 8598164271","Rajasthan","Jodhpur","Chopasni"
"Prakash Mishra","prakash.mishra@primerealty.in","+91 6592730252","Delhi","West Delhi","Vikaspuri"
"Aditi Narayan","aditi.narayan@landview.in","+91 8953430503","Rajasthan","Udaipur","Hiran Magri"
"Komal Soni","komal.soni@skyline.in","+91 6335272735","Uttar Pradesh","Noida","Sector 50"
"Jyoti Shah","jyoti.shah@housejoy.in","+91 7733152473","Telangana","Warangal","Hanamkonda"
"Mohan Krishnan","mohan.krishnan@homebase.in","+91 8491012924","Karnataka","Mysuru","Gokulam"
"Harish Dhawan","harish.dhawan@propclick.in","+91 8860989516","Karnataka","Bengaluru","JP Nagar"
"Ganesh Tiwari","ganesh.tiwari@housezone.in","+91 8652063307","Haryana","Gurgaon","Sector 82"
"Rahul Chandra","rahul.chandra@estatecraft.in","+91 8998031412","Madhya Pradesh","Indore","Bhawarkuan"
"Sanjay Venkat","sanjay.venkat@nestprop.in","+91 8435853426","Uttarakhand","Haridwar","Shivalik Nagar"
"Arjun Mathur","arjun.mathur@flatfind.in","+91 7827022968","Kerala","Ernakulam","Palarivattom"
"Rashmi Tyagi","rashmi.tyagi@skyline.in","+91 7790284884","Goa","Margao","Gogol"
"Ganesh Rajan","ganesh.rajan@propvault.in","+91 9795775907","Maharashtra","Pune","Aundh"
"Kirti Pawar","kirti.pawar@skyline.in","+91 8998327681","West Bengal","Siliguri","Hill Cart Road"
"Deepa Nair","deepa.nair@estateplus.in","+91 6363430952","Kerala","Thiruvananthapuram","Vazhuthacaud"
"Prakash Dhawan","prakash.dhawan@landview.in","+91 8345005076","Maharashtra","Thane","Naupada"
"Shobha Sharma","shobha.sharma@estateworld.in","+91 8617859612","Gujarat","Vadodara","Karelibaug"
"Nitin Dhawan","nitin.dhawan@homevista.in","+91 9767560303","West Bengal","Siliguri","Sevoke Road"
"Mohan Nair","mohan.nair@homevista.in","+91 9030475180","Tamil Nadu","Madurai","Mattuthavani"
"Madhuri Rajan","madhuri.rajan@nestprop.in","+91 9660083302","Rajasthan","Udaipur","University Road"
"Karan Gowda","karan.gowda@cityrealty.in","+91 9383803385","Haryana","Gurgaon","Sector 67"
"Kunal Kulkarni","kunal.kulkarni@homebase.in","+91 9299356692","Maharashtra","Thane","Ghodbunder Road"
"Shobha Das","shobha.das@propclick.in","+91 9823017382","Gujarat","Vadodara","Gotri"
"Dinesh Bansal","dinesh.bansal@homebase.in","+91 6139497239","Bihar","Patna","Rajendra Nagar"
"Geeta Sen","geeta.sen@flatfind.in","+91 6236122544","Jharkhand","Jamshedpur","Mango"
"Girish Trivedi","girish.trivedi@propsearch.in","+91 8190787147","Assam","Guwahati","Panbazar"
"Madhuri Gill","madhuri.gill@housezone.in","+91 9678730555","Rajasthan","Udaipur","Chetak Circle"
"Meera Thakur","meera.thakur@homespace.in","+91 8692991975","West Bengal","Siliguri","Salugara"
"Manju Deshpande","manju.deshpande@estatecraft.in","+91 9609101095","Odisha","Cuttack","Badambadi"
"Manoj Bhargava","manoj.bhargava@realtyin.in","+91 8008255135","Karnataka","Bengaluru","Yelahanka"
"Gauri Chandra","gauri.chandra@primerealty.in","+91 8731780990","Maharashtra","Nashik","Panchavati"
"Rohan Chandra","rohan.chandra@propmart.in","+91 6009009457","Chhattisgarh","Raipur","Tatibandh"
"Ritu Pillai","ritu.pillai@smartrealty.in","+91 8896707330","Uttar Pradesh","Agra","Sikandra"
"Anita Deshpande","anita.deshpande@skyline.in","+91 7554321292","Gujarat","Vadodara","Vasna"
"Shweta Rajan","shweta.rajan@primerealty.in","+91 7925438955","Gujarat","Surat","Athwa"
"Sarita Khanna","sarita.khanna@propclick.in","+91 6869492463","Punjab","Amritsar","Court Road"
"Anita Sen","anita.sen@urbanrealty.in","+91 8019591909","Kerala","Thiruvananthapuram","Pattom"
"Sunita Mahajan","sunita.mahajan@skyline.in","+91 8731366785","Goa","Panaji","Dona Paula"
"Prakash Pillai","prakash.pillai@homeclick.in","+91 7390990220","Delhi","South Delhi","Hauz Khas"
"Mahesh Naik","mahesh.naik@nestfinder.in","+91 7665461407","Gujarat","Ahmedabad","Bopal"
"Lakshmi Jain","lakshmi.jain@estateplus.in","+91 6303472637","Punjab","Ludhiana","Civil Lines"
"Nilesh Reddy","nilesh.reddy@flatfind.in","+91 6342164293","West Bengal","Howrah","Golabari"
"Usha Kaur","usha.kaur@urbanprop.in","+91 9321755874","Karnataka","Mysuru","Vijayanagar"
"Gauri Dhawan","gauri.dhawan@estateworld.in","+91 9144896517","Tamil Nadu","Tiruchirappalli","Crawford"
"Seema Rao","seema.rao@landcraft.in","+91 7191703525","Jharkhand","Jamshedpur","Mango"
"Suresh Soni","suresh.soni@flatfind.in","+91 9822526598","West Bengal","Kolkata","Behala"
"Lata Prasad","lata.prasad@homevista.in","+91 7314594950","Kerala","Thiruvananthapuram","Vazhuthacaud"
"Renuka Kumar","renuka.kumar@nestprop.in","+91 6509502685","Rajasthan","Jodhpur","Air Force Area"
"Varsha Gill","varsha.gill@propmart.in","+91 8872683677","Kerala","Kochi","Thevara"
"Deepa Pandey","deepa.pandey@landview.in","+91 7121668653","Jharkhand","Ranchi","Bariatu"
"Suman Das","suman.das@homehunt.in","+91 6525799135","Madhya Pradesh","Indore","Bhanwarkuan"
"Rohit Iyer","rohit.iyer@primerealty.in","+91 8331903658","Haryana","Faridabad","Sector 16"
"Mahesh Saxena","mahesh.saxena@propworld.in","+91 7745021976","Uttarakhand","Haridwar","Bahadrabad"
"Sanjay Joshi","sanjay.joshi@plotpoint.in","+91 9593244220","Haryana","Panipat","Siwah Road"
"Pranav Deshmukh","pranav.deshmukh@estatecraft.in","+91 8862713978","Haryana","Faridabad","Sector 15"
"Vijay Reddy","vijay.reddy@propnet.in","+91 6074020801","Gujarat","Surat","Adajan"
"Dinesh Verma","dinesh.verma@housecraft.in","+91 8431947145","West Bengal","Kolkata","Behala"
"Manish Rao","manish.rao@realtyin.in","+91 8838202219","Jharkhand","Jamshedpur","Telco"
"Geeta Trivedi","geeta.trivedi@urbanprop.in","+91 7872681445","Telangana","Hyderabad","Miyapur"
"Vikram Pawar","vikram.pawar@propclick.in","+91 9795855957","Uttarakhand","Haridwar","Kankhal"
"Girish Iyer","girish.iyer@realquest.in","+91 8705886468","Rajasthan","Jaipur","Raja Park"
"Neha Prasad","neha.prasad@housingplus.in","+91 7716020445","Odisha","Cuttack","College Square"
"Ritu Singh","ritu.singh@plotpoint.in","+91 7042083670","Delhi","New Delhi","Green Park"
"Deepak Goyal","deepak.goyal@flatzone.in","+91 8345829723","Jharkhand","Ranchi","Doranda"
"Ashok Pillai","ashok.pillai@homebase.in","+91 8011707509","Andhra Pradesh","Visakhapatnam","Seethammadhara"
"Rohan Chandra","rohan.chandra@flatfind.in","+91 6145003016","Maharashtra","Nagpur","Dharampeth"
"Mohan Mahajan","mohan.mahajan@nestprop.in","+91 9847222602","Madhya Pradesh","Bhopal","Hoshangabad Road"
"Ananya Hegde","ananya.hegde@landpro.in","+91 9641954235","Karnataka","Hubli","Malmaddi"
"Pranav Iyer","pranav.iyer@primerealty.in","+91 7910797604","Karnataka","Mysuru","Hebbal"
"Tarun Rajan","tarun.rajan@housejoy.in","+91 6252183057","Madhya Pradesh","Bhopal","Bairagarh"
"Mohan Dhawan","mohan.dhawan@estateplus.in","+91 8610618290","Maharashtra","Mumbai","Powai"
"Anita Sethi","anita.sethi@skyline.in","+91 8958682011","Madhya Pradesh","Indore","MG Road"
"Manoj Goyal","manoj.goyal@propline.in","+91 8392167393","Kerala","Thiruvananthapuram","Kowdiar"
"Suman Dubey","suman.dubey@urbanspace.in","+91 9301061006","Kerala","Thiruvananthapuram","Ulloor"
"Prakash Malhotra","prakash.malhotra@housejoy.in","+91 7219848786","Delhi","East Delhi","Preet Vihar"
"Siddharth Deshpande","siddharth.deshpande@housingplus.in","+91 7001965178","Uttar Pradesh","Varanasi","Bhelupur"
"Prakash Deshmukh","prakash.deshmukh@realty.in","+91 6722358631","Madhya Pradesh","Gwalior","Hazira"
"Pooja Choudhary","pooja.choudhary@homevista.in","+91 7338604699","Madhya Pradesh","Bhopal","Shivaji Nagar"
"Pranav Gill","pranav.gill@homehunt.in","+91 6719073466","Chhattisgarh","Raipur","Mowa"
"Lakshmi Arora","lakshmi.arora@propmart.in","+91 9995775005","Haryana","Panipat","Risalu"
"Vinod Tyagi","vinod.tyagi@nestfinder.in","+91 8277630343","Goa","Panaji","Caranzalem"
"Kavitha Gill","kavitha.gill@estatepro.in","+91 8501088419","Rajasthan","Udaipur","Shobhagpura"
"Pooja Narayan","pooja.narayan@nestprop.in","+91 7697888193","West Bengal","Howrah","Shibpur"
"Mahesh Kapoor","mahesh.kapoor@cityrealty.in","+91 7252748792","Uttar Pradesh","Noida","Sector 150"
"Karan Trivedi","karan.trivedi@landview.in","+91 7832110188","Haryana","Panipat","Old Railway Road"
"Ravi Hegde","ravi.hegde@dreamrealty.in","+91 8320060025","Karnataka","Mysuru","Vijayanagar"
"Lata Gill","lata.gill@housezone.in","+91 9869130649","Andhra Pradesh","Vijayawada","Governorpet"
"Naveen Venkat","naveen.venkat@propsearch.in","+91 7851950397","Haryana","Panipat","Siwah Road"
"Prakash Saxena","prakash.saxena@primerealty.in","+91 6694607958","Odisha","Bhubaneswar","Khandagiri"
"Manish Pillai","manish.pillai@estateworld.in","+91 8340814989","Delhi","East Delhi","Vishwas Nagar"
"Deepak Choudhary","deepak.choudhary@homeclick.in","+91 9325132568","Delhi","South Delhi","Badarpur"
"Shweta Chatterjee","shweta.chatterjee@homeclick.in","+91 7073950829","Telangana","Warangal","Lashkar Bazaar"
"Arun Kaur","arun.kaur@propline.in","+91 6111842493","Punjab","Ludhiana","Gurdev Nagar"
"Santosh Pandey","santosh.pandey@realtyin.in","+91 6738326277","Bihar","Gaya","Station Road"
"Aditi Mahajan","aditi.mahajan@flatzone.in","+91 8401956869","Telangana","Warangal","Balasamudram"
"Ramesh Kaur","ramesh.kaur@estatepro.in","+91 7017771042","Assam","Guwahati","Beltola"
"Deepak Jain","deepak.jain@propvault.in","+91 7919294122","Kerala","Kochi","Elamakkara"
"Varsha Thakur","varsha.thakur@propnet.in","+91 6737599325","Haryana","Panipat","Old Railway Road"
"Naveen Verma","naveen.verma@nestfinder.in","+91 8827323159","Uttar Pradesh","Lucknow","Rajajipuram"
"Suman Jain","suman.jain@realtyzone.in","+91 6977849898","Gujarat","Ahmedabad","Gota"
"Lakshmi Sharma","lakshmi.sharma@propnet.in","+91 8965231396","Karnataka","Hubli","Malmaddi"
"Anjali Bhat","anjali.bhat@realquest.in","+91 7035805538","Maharashtra","Pune","Kothrud"
"Ritu Bhargava","ritu.bhargava@homehunt.in","+91 9433431909","Jharkhand","Jamshedpur","Telco"
"Amit Iyer","amit.iyer@nestprop.in","+91 7557570109","Gujarat","Vadodara","Manjalpur"
"Madhuri Rao","madhuri.rao@housingplus.in","+91 9465799530","Kerala","Kozhikode","Chevayur"
"Bhavna Nambiar","bhavna.nambiar@primeplot.in","+91 8526741745","Uttarakhand","Dehradun","Rajpur Road"
"Megha Deshmukh","megha.deshmukh@propworld.in","+91 7238292895","Karnataka","Mangaluru","Attavar"
"Rekha Nair","rekha.nair@primeplot.in","+91 7522949474","Punjab","Chandigarh","Sector 11"
"Divya Bhargava","divya.bhargava@propclick.in","+91 7844796798","Chhattisgarh","Raipur","Gudhiyari"
"Anjali Gill","anjali.gill@nestprop.in","+91 7821669010","Punjab","Chandigarh","Sector 11"
"Varsha Gowda","varsha.gowda@propease.in","+91 9412023663","Tamil Nadu","Chennai","T. Nagar"
"Yogesh Saxena","yogesh.saxena@landview.in","+91 8990202014","Delhi","East Delhi","Shakarpur"
"Kirti Bose","kirti.bose@propview.in","+91 8965098034","Madhya Pradesh","Indore","AB Road"
"Vivek Nair","vivek.nair@skyrealty.in","+91 8618172649","Haryana","Faridabad","Sector 28"
"Tanvi Krishnan","tanvi.krishnan@landpro.in","+91 8930703185","Maharashtra","Thane","Naupada"
"Rahul Das","rahul.das@homeclick.in","+91 8099322266","Haryana","Gurgaon","Sector 47"
"Rajesh Menon","rajesh.menon@cityrealty.in","+91 8082443233","Rajasthan","Jaipur","Pratap Nagar"
"Pallavi Krishnan","pallavi.krishnan@plotpoint.in","+91 6490923364","Andhra Pradesh","Visakhapatnam","MVP Colony"
"Gaurav Narayan","gaurav.narayan@primerealty.in","+91 7470148097","Karnataka","Mysuru","Gokulam"
"Pooja Menon","pooja.menon@cityrealty.in","+91 9118781247","Maharashtra","Thane","Ghodbunder Road"
"Arun Bansal","arun.bansal@housecraft.in","+91 9889705797","Karnataka","Mysuru","Yadavagiri"
"Arjun Venkat","arjun.venkat@urbanspace.in","+91 6736111513","Haryana","Gurgaon","Sohna Road"
"Rohit Khanna","rohit.khanna@propsearch.in","+91 7431087489","Maharashtra","Nagpur","Itwari"
"Arun Jain","arun.jain@estateplus.in","+91 8142794887","Maharashtra","Mumbai","Lower Parel"
"Padma Batra","padma.batra@propworld.in","+91 8096652646","Rajasthan","Jaipur","Raja Park"
"Ravi Chauhan","ravi.chauhan@nestprop.in","+91 6854041763","Uttarakhand","Haridwar","Shivalik Nagar"
"Pallavi Sen","pallavi.sen@propworld.in","+91 6430456212","Delhi","New Delhi","Green Park"
"Akash Menon","akash.menon@dreamhome.in","+91 8496175742","Uttar Pradesh","Noida","Sector 128"
"Prasad Reddy","prasad.reddy@homebase.in","+91 9294251627","Odisha","Bhubaneswar","Nayapalli"
"Pankaj Pillai","pankaj.pillai@plotpoint.in","+91 6744140705","Madhya Pradesh","Bhopal","Shahpura"
"Vikram Verma","vikram.verma@estatepro.in","+91 8438886678","Maharashtra","Nashik","Deolali"
"Smita Singh","smita.singh@estateworld.in","+91 8293845355","Bihar","Gaya","Ramshila"
"Sanjay Krishnan","sanjay.krishnan@landcraft.in","+91 6974579202","Uttarakhand","Haridwar","Jwalapur"
"Kavitha Gowda","kavitha.gowda@skyline.in","+91 7718973125","Delhi","West Delhi","Tilak Nagar"
"Veena Rajan","veena.rajan@homeclick.in","+91 6071063886","Delhi","New Delhi","Green Park"
"Vishal Naik","vishal.naik@realtyzone.in","+91 6262672851","Kerala","Ernakulam","Tripunithura"
"Prasad Sethi","prasad.sethi@nexthome.in","+91 9470320359","Jharkhand","Ranchi","Bariatu"
"Aditi Deshpande","aditi.deshpande@homehunt.in","+91 7966811914","Tamil Nadu","Chennai","Chromepet"
"Manju Das","manju.das@housecraft.in","+91 9388691500","Karnataka","Mangaluru","Bejai"
"Sarita Iyer","sarita.iyer@propclick.in","+91 8829937408","Punjab","Chandigarh","Sector 22"
"Amit Soni","amit.soni@homeclick.in","+91 6849747487","Telangana","Hyderabad","Secunderabad"
"Santosh Ghosh","santosh.ghosh@nestprop.in","+91 8707949227","Rajasthan","Jaipur","Pratap Nagar"
"Nisha Gill","nisha.gill@skyrealty.in","+91 7370922752","Rajasthan","Jaipur","C Scheme"
"Sneha Goyal","sneha.goyal@propworld.in","+91 6404468010","Andhra Pradesh","Vijayawada","Gunadala"
"Mahesh Joshi","mahesh.joshi@landview.in","+91 7507291170","Kerala","Ernakulam","Thripunithura"
"Rekha Bhatt","rekha.bhatt@landpro.in","+91 9655025799","Gujarat","Rajkot","Astron Chowk"
"Prakash Gowda","prakash.gowda@primerealty.in","+91 8079085345","Kerala","Ernakulam","Tripunithura"
"Sachin Joshi","sachin.joshi@urbanrealty.in","+91 7490847997","Gujarat","Rajkot","University Road"
"Naveen Agarwal","naveen.agarwal@propline.in","+91 9379882399","Gujarat","Surat","Dumas Road"
"Asha Krishnan","asha.krishnan@realtyzone.in","+91 7972582566","Karnataka","Hubli","Akshay Colony"
"Ganesh Tiwari","ganesh.tiwari@estateplus.in","+91 7886813775","Haryana","Faridabad","NIT"
"Lata Tiwari","lata.tiwari@housingplus.in","+91 7480565916","Maharashtra","Mumbai","Andheri West"
"Anita Das","anita.das@smartrealty.in","+91 9280322349","Uttar Pradesh","Varanasi","Sigra"
"Rohit Tyagi","rohit.tyagi@urbanspace.in","+91 9187007478","Karnataka","Mysuru","Hebbal"
"Gaurav Kulkarni","gaurav.kulkarni@housecraft.in","+91 6559219134","Delhi","West Delhi","Tilak Nagar"
"Sarita Patil","sarita.patil@propclick.in","+91 6348221729","Haryana","Faridabad","Ballabhgarh"
"Nitin Agarwal","nitin.agarwal@realtyin.in","+91 9468507526","Punjab","Ludhiana","Rishi Nagar"
"Kirti Menon","kirti.menon@propease.in","+91 8258329588","Haryana","Panipat","Huda Sector"
"Radha Mitra","radha.mitra@propline.in","+91 6709297113","Jharkhand","Ranchi","Morabadi"
"Rekha Pawar","rekha.pawar@landview.in","+91 7677283030","Maharashtra","Nagpur","Byramji Town"
"Ravi Deshpande","ravi.deshpande@realtyzone.in","+91 8035118706","West Bengal","Kolkata","Tollygunge"
"Anjali Bhatt","anjali.bhatt@propnet.in","+91 6137984073","Delhi","New Delhi","Nehru Place"
"Nisha Pandey","nisha.pandey@propworld.in","+91 9419416971","Punjab","Amritsar","Kennedy Avenue"
"Mahesh Joshi","mahesh.joshi@propworld.in","+91 7027914269","Karnataka","Mangaluru","Kankanady"
"Vijay Mathur","vijay.mathur@realtyzone.in","+91 6471189404","Rajasthan","Jaipur","Pratap Nagar"
"Ajay Nair","ajay.nair@propvault.in","+91 9639336095","Maharashtra","Thane","Kolshet"
"Dinesh Kaur","dinesh.kaur@dreamrealty.in","+91 7013546211","Gujarat","Surat","Piplod"
"Preeti Arora","preeti.arora@realtyin.in","+91 8313866707","Tamil Nadu","Coimbatore","Vadavalli"
"Aniket Oberoi","aniket.oberoi@nexthome.in","+91 8221149115","Kerala","Ernakulam","Edappally"
"Ramesh Verma","ramesh.verma@homevista.in","+91 6580660984","Assam","Guwahati","Chandmari"
"Aditi Sethi","aditi.sethi@estateworld.in","+91 8000099235","Haryana","Faridabad","NIT"
"Rekha Sethi","rekha.sethi@estateworld.in","+91 9561797020","Gujarat","Vadodara","Race Course"
"Pallavi Sharma","pallavi.sharma@estateworld.in","+91 9439071185","Odisha","Bhubaneswar","Baramunda"
"Shobha Chandra","shobha.chandra@propease.in","+91 6232679996","Haryana","Faridabad","Sector 37"
"Durga Oberoi","durga.oberoi@skyrealty.in","+91 8713970278","Rajasthan","Jodhpur","Paota"
"Kartik Bose","kartik.bose@propsearch.in","+91 8591212991","Bihar","Gaya","Delha"
"Yogesh Sharma","yogesh.sharma@primerealty.in","+91 9351719553","Haryana","Gurgaon","Sector 82"
"Asha Arora","asha.arora@landpro.in","+91 6525605034","Assam","Guwahati","Dispur"
"Divya Jain","divya.jain@nexthome.in","+91 9780172349","Karnataka","Mysuru","Lakshmipuram"
"Asha Das","asha.das@skyrealty.in","+91 9508384724","Delhi","East Delhi","Shakarpur"
"Naveen Chauhan","naveen.chauhan@skyrealty.in","+91 7079589197","Telangana","Hyderabad","Banjara Hills"
"Mahesh Soni","mahesh.soni@flatfind.in","+91 9681749768","Jharkhand","Ranchi","Harmu"
"Renuka Patel","renuka.patel@skyrealty.in","+91 6821453401","Maharashtra","Nashik","Pathardi"
"Shobha Deshmukh","shobha.deshmukh@homespace.in","+91 8100759107","Kerala","Kochi","Fort Kochi"
"Suman Rawat","suman.rawat@homebase.in","+91 7861751492","Gujarat","Ahmedabad","Satellite"
"Padma Kapoor","padma.kapoor@nexthome.in","+91 6136720220","Gujarat","Surat","Pal"
"Trupti Sharma","trupti.sharma@nexthome.in","+91 9535375483","Delhi","South Delhi","Kalkaji"
"Akash Shah","akash.shah@skyline.in","+91 7154102020","Delhi","East Delhi","Preet Vihar"
"Arun Pillai","arun.pillai@flatfind.in","+91 6477863639","Odisha","Bhubaneswar","Chandrasekharpur"
"Gauri Verma","gauri.verma@flatzone.in","+91 7002123281","Uttar Pradesh","Lucknow","Indira Nagar"
"Pallavi Nambiar","pallavi.nambiar@realty.in","+91 9943898234","Maharashtra","Pune","Magarpatta"
"Seema Prasad","seema.prasad@primeplot.in","+91 9390991477","Haryana","Gurgaon","Sector 82"
"Geeta Bose","geeta.bose@primerealty.in","+91 8042237211","Maharashtra","Nashik","Gangapur Road"
"Suresh Nair","suresh.nair@nexthome.in","+91 9810154980","Punjab","Chandigarh","Sector 11"
"Shobha Tyagi","shobha.tyagi@homefind.in","+91 9261072357","Tamil Nadu","Madurai","Narimedu"
"Megha Tiwari","megha.tiwari@homevista.in","+91 6055427932","Jharkhand","Ranchi","Harmu"
"Nilesh Dubey","nilesh.dubey@dreamhome.in","+91 6322635104","Karnataka","Hubli","Navanagar"
"Prasad Singh","prasad.singh@landpro.in","+91 8896961553","Bihar","Patna","Budha Marg"
"Hemant Narayan","hemant.narayan@homeclick.in","+91 6759949554","Haryana","Faridabad","Sector 37"
"Naveen Oberoi","naveen.oberoi@propvault.in","+91 7874015511","Rajasthan","Udaipur","Sukhadia Circle"
"Vikram Reddy","vikram.reddy@housingplus.in","+91 8543552088","Rajasthan","Jodhpur","Shastri Nagar"
"Kirti Das","kirti.das@cityrealty.in","+91 6102883062","Uttar Pradesh","Noida","Sector 128"
"Sarita Jain","sarita.jain@skyrealty.in","+91 6613025053","Jharkhand","Jamshedpur","Kadma"
"Ganesh Batra","ganesh.batra@estateworld.in","+91 7343039285","Jharkhand","Jamshedpur","Golmuri"
"Rohit Patel","rohit.patel@propsearch.in","+91 6169729853","Maharashtra","Pune","Hadapsar"
"Deepa Goyal","deepa.goyal@dreamrealty.in","+91 8139057653","Odisha","Bhubaneswar","Baramunda"
"Renuka Iyer","renuka.iyer@homes.in","+91 7934618782","Tamil Nadu","Tiruchirappalli","Cantonment"
"Mahesh Pawar","mahesh.pawar@primerealty.in","+91 8793498483","Chhattisgarh","Raipur","Fafadih"
"Hemant Prasad","hemant.prasad@homebase.in","+91 8257527191","Tamil Nadu","Madurai","Narimedu"
"Anjali Mahajan","anjali.mahajan@realquest.in","+91 9983148773","Delhi","East Delhi","Pandav Nagar"
"Manish Mathur","manish.mathur@homeclick.in","+91 7304195269","Madhya Pradesh","Gwalior","Gwalior Fort"
"Trupti Jain","trupti.jain@realty.in","+91 8098936491","Karnataka","Bengaluru","Yelahanka"
"Usha Kumar","usha.kumar@housezone.in","+91 8211275294","Rajasthan","Jodhpur","Paota"
"Renuka Mishra","renuka.mishra@landcraft.in","+91 6569144110","Telangana","Hyderabad","Banjara Hills"
"Bhavna Venkat","bhavna.venkat@primerealty.in","+91 7889278181","Uttar Pradesh","Varanasi","Mahmoorganj"
"Hemant Bhatt","hemant.bhatt@nestfinder.in","+91 6861785341","Andhra Pradesh","Vijayawada","Governorpet"
"Kirti Deshmukh","kirti.deshmukh@housejoy.in","+91 8671105251","Chhattisgarh","Raipur","Gudhiyari"
"Divya Mahajan","divya.mahajan@nexthome.in","+91 6550833401","Rajasthan","Jaipur","Tonk Road"
"Dinesh Yadav","dinesh.yadav@homevista.in","+91 9024271987","Gujarat","Vadodara","Manjalpur"
"Shobha Kapoor","shobha.kapoor@realquest.in","+91 9332384590","Delhi","South Delhi","Hauz Khas"
"Trupti Bhargava","trupti.bhargava@landcraft.in","+91 9610110095","Jharkhand","Jamshedpur","Kadma"
"Yogesh Agarwal","yogesh.agarwal@skyrealty.in","+91 7425073871","Maharashtra","Mumbai","Borivali"
"Veena Rao","veena.rao@housecraft.in","+91 9601426839","Haryana","Faridabad","Ballabhgarh"
"Lakshmi Chauhan","lakshmi.chauhan@realtyzone.in","+91 8374988815","Telangana","Warangal","Mulugu Road"
"Deepak Malhotra","deepak.malhotra@propnet.in","+91 9991277636","Maharashtra","Nashik","Rana Pratap Chowk"
"Meera Tiwari","meera.tiwari@estateworld.in","+91 6614756935","Maharashtra","Nashik","College Road"
"Sarita Deshpande","sarita.deshpande@homespace.in","+91 6793237056","Andhra Pradesh","Vijayawada","Auto Nagar"
"Kunal Das","kunal.das@flatzone.in","+91 9677122844","Odisha","Bhubaneswar","Patia"
"Hemant Agarwal","hemant.agarwal@flatzone.in","+91 8052247167","Gujarat","Rajkot","Nana Mauva"
"Megha Bhargava","megha.bhargava@propsearch.in","+91 9141645381","Gujarat","Vadodara","Sayajigunj"
"Komal Mehta","komal.mehta@realquest.in","+91 8936698246","Kerala","Thiruvananthapuram","Kazhakkoottam"
"Pooja Sen","pooja.sen@homebase.in","+91 7084123415","Tamil Nadu","Madurai","Thirumangalam"
"Bhavna Gupta","bhavna.gupta@realty.in","+91 8239865737","Karnataka","Mysuru","Dattagalli"
"Gaurav Bose","gaurav.bose@homebase.in","+91 7218635615","Maharashtra","Mumbai","Juhu"
"Prakash Gupta","prakash.gupta@homespace.in","+91 8935150191","Maharashtra","Mumbai","Andheri West"
"Jyoti Mathur","jyoti.mathur@realty.in","+91 8705630753","Karnataka","Mangaluru","Urva"
"Vishal Naik","vishal.naik@dreamrealty.in","+91 7519947090","Uttar Pradesh","Agra","Sanjay Place"
"Priya Mishra","priya.mishra@smartrealty.in","+91 6867707384","Telangana","Hyderabad","Kukatpally"
"Ramesh Gowda","ramesh.gowda@realquest.in","+91 8911253094","Punjab","Chandigarh","Sector 9"
"Asha Menon","asha.menon@housingplus.in","+91 7225038366","Telangana","Warangal","Hunter Road"
"Varun Naik","varun.naik@homes.in","+91 8398170793","Madhya Pradesh","Gwalior","City Center"
"Renuka Tiwari","renuka.tiwari@urbanprop.in","+91 8537611811","Gujarat","Rajkot","Yagnik Road"
"Radha Goyal","radha.goyal@urbanprop.in","+91 7263533635","Maharashtra","Pune","Koregaon Park"
"Harish Das","harish.das@propease.in","+91 7088844449","Telangana","Warangal","Nakkalagutta"
"Prasad Kulkarni","prasad.kulkarni@housezone.in","+91 9923798954","Maharashtra","Pune","Kothrud"
"Prasad Rao","prasad.rao@urbanprop.in","+91 6348934728","Andhra Pradesh","Tirupati","Kapila Theertham"
"Girish Saxena","girish.saxena@skyline.in","+91 6895708226","Karnataka","Mangaluru","Bendoorwell"
"Sunita Yadav","sunita.yadav@housezone.in","+91 7835314015","Delhi","South Delhi","Sainik Farm"
"Sneha Agarwal","sneha.agarwal@realty.in","+91 9358520391","Uttarakhand","Dehradun","Prem Nagar"
"Girish Deshpande","girish.deshpande@propclick.in","+91 7178574557","Andhra Pradesh","Vijayawada","Gunadala"
"Ritu Pandey","ritu.pandey@propline.in","+91 9967474993","West Bengal","Siliguri","Dagapur"
"Veena Sethi","veena.sethi@homes.in","+91 7265942659","Kerala","Kochi","Kadavanthra"
"Shweta Sethi","shweta.sethi@propnet.in","+91 9535935660","Uttar Pradesh","Agra","Sanjay Place"
"Suman Agarwal","suman.agarwal@urbanspace.in","+91 8213170344","Uttar Pradesh","Agra","Civil Lines"
"Prakash Kumar","prakash.kumar@skyrealty.in","+91 9485167236","Karnataka","Hubli","Vidyanagar"
"Tushar Mishra","tushar.mishra@homespace.in","+91 8489819070","Karnataka","Mangaluru","Falnir"
"Rekha Deshpande","rekha.deshpande@propvault.in","+91 6450779774","West Bengal","Howrah","Golabari"
"Archana Narayan","archana.narayan@nexthome.in","+91 7424433218","Gujarat","Ahmedabad","Thaltej"
"Mukesh Kapoor","mukesh.kapoor@propmart.in","+91 8120142644","Delhi","East Delhi","Mayur Vihar"
"Karan Hegde","karan.hegde@estatecraft.in","+91 7937591979","Goa","Panaji","Ribandar"
"Santosh Yadav","santosh.yadav@realtyin.in","+91 6720969272","Maharashtra","Thane","Ghodbunder Road"
"Usha Rao","usha.rao@nestfinder.in","+91 8023079377","Gujarat","Rajkot","Kalawad Road"
"Kirti Choudhary","kirti.choudhary@landpro.in","+91 7071107715","Haryana","Gurgaon","Golf Course Road"
"Jyoti Mahajan","jyoti.mahajan@propsearch.in","+91 6020379645","Delhi","New Delhi","Vasant Kunj"
"Girish Saxena","girish.saxena@propworld.in","+91 8564044812","Uttar Pradesh","Lucknow","Rajajipuram"
"Shweta Mukherjee","shweta.mukherjee@nestfinder.in","+91 9738266660","Punjab","Ludhiana","Civil Lines"
"Rajesh Tiwari","rajesh.tiwari@landpro.in","+91 7813036316","Delhi","South Delhi","Sarita Vihar"
"Vikram Joshi","vikram.joshi@flatzone.in","+91 8888615490","Telangana","Warangal","Kazipet"
"Sneha Bose","sneha.bose@dreamhome.in","+91 7355884889","Jharkhand","Jamshedpur","Kadma"
"Arun Bose","arun.bose@homebase.in","+91 7217637761","Jharkhand","Ranchi","Morabadi"
"Smita Gill","smita.gill@dreamhome.in","+91 9408717461","Gujarat","Ahmedabad","Satellite"
"Swati Kaur","swati.kaur@realquest.in","+91 8816023400","Uttarakhand","Dehradun","Prem Nagar"
"Rohit Patel","rohit.patel@propview.in","+91 8373780191","Uttar Pradesh","Noida","Sector 150"
"Yogesh Mehta","yogesh.mehta@urbanspace.in","+91 8522402505","Assam","Guwahati","Dispur"